[{"region":"Asia","subregion":"Southern Asia","phoneCode":"93","name":"Afghanistan","isoA2":"AF","isoA3":"AFG","isoN3":"004","translations":{"de":"Afghanistan","es":"Afganistán","fr":"Afghanistan","ja":"アフガニスタン","it":"Afghanistan","br":"Afeganistão","pt":"Afeganistão","nl":"Afghanistan","hr":"Afganistan","fa":"افغانستان"}},{"region":"Europe","subregion":"Southern Europe","phoneCode":"355","name":"Albania","isoA2":"AL","isoA3":"ALB","isoN3":"008","translations":{"de":"Albanien","es":"Albania","fr":"Albanie","ja":"アルバニア","it":"Albania","br":"Albânia","pt":"Albânia","nl":"Albanië","hr":"Albanija","fa":"آلبانی"}},{"region":"Africa","subregion":"Northern Africa","phoneCode":"213","name":"Algeria","isoA2":"DZ","isoA3":"DZA","isoN3":"012","translations":{"de":"Algerien","es":"Argelia","fr":"Algérie","ja":"アルジェリア","it":"Algeria","br":"Argélia","pt":"Argélia","nl":"Algerije","hr":"Alžir","fa":"الجزایر"}},{"region":"Oceania","subregion":"Polynesia","phoneCode":"1684","name":"American Samoa","isoA2":"AS","isoA3":"ASM","isoN3":"016","translations":{"de":"Amerikanisch-Samoa","es":"Samoa Americana","fr":"Samoa américaines","ja":"アメリカ領サモア","it":"Samoa Americane","br":"Samoa Americana","pt":"Samoa Americana","nl":"Amerikaans Samoa","hr":"Američka Samoa","fa":"ساموآی آمریکا"}},{"region":"Europe","subregion":"Southern Europe","phoneCode":"376","name":"Andorra","isoA2":"AD","isoA3":"AND","isoN3":"020","translations":{"de":"Andorra","es":"Andorra","fr":"Andorre","ja":"アンドラ","it":"Andorra","br":"Andorra","pt":"Andorra","nl":"Andorra","hr":"Andora","fa":"آندورا"}},{"region":"Africa","subregion":"Middle Africa","phoneCode":"244","name":"Angola","isoA2":"AO","isoA3":"AGO","isoN3":"024","translations":{"de":"Angola","es":"Angola","fr":"Angola","ja":"アンゴラ","it":"Angola","br":"Angola","pt":"Angola","nl":"Angola","hr":"Angola","fa":"آنگولا"}},{"region":"Americas","subregion":"Caribbean","phoneCode":"1264","name":"Anguilla","isoA2":"AI","isoA3":"AIA","isoN3":"660","translations":{"de":"Anguilla","es":"Anguilla","fr":"Anguilla","ja":"アンギラ","it":"Anguilla","br":"Anguila","pt":"Anguila","nl":"Anguilla","hr":"Angvila","fa":"آنگویلا"}},{"region":"Polar","phoneCode":"672","name":"Antarctica","isoA2":"AQ","isoA3":"ATA","isoN3":"010","translations":{"de":"Antarktika","es":"Antártida","fr":"Antarctique","ja":"南極大陸","it":"Antartide","br":"Antártida","pt":"Antárctida","nl":"Antarctica","hr":"Antarktika","fa":"جنوبگان"}},{"region":"Americas","subregion":"Caribbean","phoneCode":"1268","name":"Antigua and Barbuda","isoA2":"AG","isoA3":"ATG","isoN3":"028","translations":{"de":"Antigua und Barbuda","es":"Antigua y Barbuda","fr":"Antigua-et-Barbuda","ja":"アンティグア・バーブーダ","it":"Antigua e Barbuda","br":"Antígua e Barbuda","pt":"Antígua e Barbuda","nl":"Antigua en Barbuda","hr":"Antigva i Barbuda","fa":"آنتیگوا و باربودا"}},{"region":"Americas","subregion":"South America","phoneCode":"54","name":"Argentina","isoA2":"AR","isoA3":"ARG","isoN3":"032","translations":{"de":"Argentinien","es":"Argentina","fr":"Argentine","ja":"アルゼンチン","it":"Argentina","br":"Argentina","pt":"Argentina","nl":"Argentinië","hr":"Argentina","fa":"آرژانتین"}},{"region":"Asia","subregion":"Western Asia","phoneCode":"374","name":"Armenia","isoA2":"AM","isoA3":"ARM","isoN3":"051","translations":{"de":"Armenien","es":"Armenia","fr":"Arménie","ja":"アルメニア","it":"Armenia","br":"Armênia","pt":"Arménia","nl":"Armenië","hr":"Armenija","fa":"ارمنستان"}},{"region":"Americas","subregion":"Caribbean","phoneCode":"297","name":"Aruba","isoA2":"AW","isoA3":"ABW","isoN3":"533","translations":{"de":"Aruba","es":"Aruba","fr":"Aruba","ja":"アルバ","it":"Aruba","br":"Aruba","pt":"Aruba","nl":"Aruba","hr":"Aruba","fa":"آروبا"}},{"region":"Oceania","subregion":"Australia and New Zealand","phoneCode":"61","name":"Australia","isoA2":"AU","isoA3":"AUS","isoN3":"036","translations":{"de":"Australien","es":"Australia","fr":"Australie","ja":"オーストラリア","it":"Australia","br":"Austrália","pt":"Austrália","nl":"Australië","hr":"Australija","fa":"استرالیا"}},{"region":"Europe","subregion":"Western Europe","phoneCode":"43","name":"Austria","isoA2":"AT","isoA3":"AUT","isoN3":"040","translations":{"de":"Österreich","es":"Austria","fr":"Autriche","ja":"オーストリア","it":"Austria","br":"áustria","pt":"áustria","nl":"Oostenrijk","hr":"Austrija","fa":"اتریش"}},{"region":"Asia","subregion":"Western Asia","phoneCode":"994","name":"Azerbaijan","isoA2":"AZ","isoA3":"AZE","isoN3":"031","translations":{"de":"Aserbaidschan","es":"Azerbaiyán","fr":"Azerbaïdjan","ja":"アゼルバイジャン","it":"Azerbaijan","br":"Azerbaijão","pt":"Azerbaijão","nl":"Azerbeidzjan","hr":"Azerbajdžan","fa":"آذربایجان"}},{"region":"Americas","subregion":"Caribbean","phoneCode":"1242","name":"Bahamas","isoA2":"BS","isoA3":"BHS","isoN3":"044","translations":{"de":"Bahamas","es":"Bahamas","fr":"Bahamas","ja":"バハマ","it":"Bahamas","br":"Bahamas","pt":"Baamas","nl":"Bahama’s","hr":"Bahami","fa":"باهاما"}},{"region":"Asia","subregion":"Western Asia","phoneCode":"973","name":"Bahrain","isoA2":"BH","isoA3":"BHR","isoN3":"048","translations":{"de":"Bahrain","es":"Bahrein","fr":"Bahreïn","ja":"バーレーン","it":"Bahrein","br":"Bahrein","pt":"Barém","nl":"Bahrein","hr":"Bahrein","fa":"بحرین"}},{"region":"Asia","subregion":"Southern Asia","phoneCode":"880","name":"Bangladesh","isoA2":"BD","isoA3":"BGD","isoN3":"050","translations":{"de":"Bangladesch","es":"Bangladesh","fr":"Bangladesh","ja":"バングラデシュ","it":"Bangladesh","br":"Bangladesh","pt":"Bangladeche","nl":"Bangladesh","hr":"Bangladeš","fa":"بنگلادش"}},{"region":"Americas","subregion":"Caribbean","phoneCode":"1246","name":"Barbados","isoA2":"BB","isoA3":"BRB","isoN3":"052","translations":{"de":"Barbados","es":"Barbados","fr":"Barbade","ja":"バルバドス","it":"Barbados","br":"Barbados","pt":"Barbados","nl":"Barbados","hr":"Barbados","fa":"باربادوس"}},{"region":"Europe","subregion":"Eastern Europe","phoneCode":"375","name":"Belarus","isoA2":"BY","isoA3":"BLR","isoN3":"112","translations":{"de":"Weißrussland","es":"Bielorrusia","fr":"Biélorussie","ja":"ベラルーシ","it":"Bielorussia","br":"Bielorrússia","pt":"Bielorrússia","nl":"Wit-Rusland","hr":"Bjelorusija","fa":"بلاروس"}},{"region":"Europe","subregion":"Western Europe","phoneCode":"32","name":"Belgium","isoA2":"BE","isoA3":"BEL","isoN3":"056","translations":{"de":"Belgien","es":"Bélgica","fr":"Belgique","ja":"ベルギー","it":"Belgio","br":"Bélgica","pt":"Bélgica","nl":"België","hr":"Belgija","fa":"بلژیک"}},{"region":"Americas","subregion":"Central America","phoneCode":"501","name":"Belize","isoA2":"BZ","isoA3":"BLZ","isoN3":"084","translations":{"de":"Belize","es":"Belice","fr":"Belize","ja":"ベリーズ","it":"Belize","br":"Belize","pt":"Belize","nl":"Belize","hr":"Belize","fa":"بلیز"}},{"region":"Africa","subregion":"Western Africa","phoneCode":"229","name":"Benin","isoA2":"BJ","isoA3":"BEN","isoN3":"204","translations":{"de":"Benin","es":"Benín","fr":"Bénin","ja":"ベナン","it":"Benin","br":"Benin","pt":"Benim","nl":"Benin","hr":"Benin","fa":"بنین"}},{"region":"Americas","subregion":"Northern America","phoneCode":"1441","name":"Bermuda","isoA2":"BM","isoA3":"BMU","isoN3":"060","translations":{"de":"Bermuda","es":"Bermudas","fr":"Bermudes","ja":"バミューダ","it":"Bermuda","br":"Bermudas","pt":"Bermudas","nl":"Bermuda","hr":"Bermudi","fa":"برمودا"}},{"region":"Asia","subregion":"Southern Asia","phoneCode":"975","name":"Bhutan","isoA2":"BT","isoA3":"BTN","isoN3":"064","translations":{"de":"Bhutan","es":"Bután","fr":"Bhoutan","ja":"ブータン","it":"Bhutan","br":"Butão","pt":"Butão","nl":"Bhutan","hr":"Butan","fa":"بوتان"}},{"region":"Americas","subregion":"South America","phoneCode":"591","name":"Bolivia","isoA2":"BO","isoA3":"BOL","isoN3":"068","translations":{"de":"Bolivien","es":"Bolivia","fr":"Bolivie","ja":"ボリビア多民族国","it":"Bolivia","br":"Bolívia","pt":"Bolívia","nl":"Bolivia","hr":"Bolivija","fa":"بولیوی"}},{"region":"Americas","subregion":"Caribbean","phoneCode":"5997","name":"Bonaire, Sint Eustatius and Saba","isoA2":"BQ","isoA3":"BES","isoN3":"535","translations":{"de":"Bonaire, Sint Eustatius und Saba","es":null,"fr":"Bonaire, Saint-Eustache et Saba","ja":null,"it":"Bonaire, Saint-Eustache e Saba","br":"Bonaire","pt":"Bonaire","nl":null,"hr":null,"fa":"بونیر"}},{"region":"Europe","subregion":"Southern Europe","phoneCode":"387","name":"Bosnia and Herzegovina","isoA2":"BA","isoA3":"BIH","isoN3":"070","translations":{"de":"Bosnien und Herzegowina","es":"Bosnia y Herzegovina","fr":"Bosnie-Herzégovine","ja":"ボスニア・ヘルツェゴビナ","it":"Bosnia ed Erzegovina","br":"Bósnia e Herzegovina","pt":"Bósnia e Herzegovina","nl":"Bosnië en Herzegovina","hr":"Bosna i Hercegovina","fa":"بوسنی و هرزگوین"}},{"region":"Africa","subregion":"Southern Africa","phoneCode":"267","name":"Botswana","isoA2":"BW","isoA3":"BWA","isoN3":"072","translations":{"de":"Botswana","es":"Botswana","fr":"Botswana","ja":"ボツワナ","it":"Botswana","br":"Botsuana","pt":"Botsuana","nl":"Botswana","hr":"Bocvana","fa":"بوتسوانا"}},{"region":"Polar","name":"Bouvet Island","isoA2":"BV","isoA3":"BVT","isoN3":"074","translations":{"de":"Bouvetinsel","es":"Isla Bouvet","fr":"Île Bouvet","ja":"ブーベ島","it":"Isola Bouvet","br":"Ilha Bouvet","pt":"Ilha Bouvet","nl":"Bouveteiland","hr":"Otok Bouvet","fa":"جزیره بووه"}},{"region":"Americas","subregion":"South America","phoneCode":"55","name":"Brazil","isoA2":"BR","isoA3":"BRA","isoN3":"076","translations":{"de":"Brasilien","es":"Brasil","fr":"Brésil","ja":"ブラジル","it":"Brasile","br":"Brasil","pt":"Brasil","nl":"Brazilië","hr":"Brazil","fa":"برزیل"}},{"region":"Africa","subregion":"Eastern Africa","phoneCode":"246","name":"British Indian Ocean Territory","isoA2":"IO","isoA3":"IOT","isoN3":"086","translations":{"de":"Britisches Territorium im Indischen Ozean","es":"Territorio Británico del Océano Índico","fr":"Territoire britannique de l'océan Indien","ja":"イギリス領インド洋地域","it":"Territorio britannico dell'oceano indiano","br":"Território Britânico do Oceano íÍdico","pt":"Território Britânico do Oceano Índico","nl":"Britse Gebieden in de Indische Oceaan","hr":"Britanski Indijskooceanski teritorij","fa":"قلمرو بریتانیا در اقیانوس هند"}},{"region":"Americas","subregion":"Caribbean","phoneCode":"1284","name":"British Virgin Islands","isoA2":"VG","isoA3":"VGB","isoN3":"092","translations":{"de":"Britische Jungferninseln","es":"Islas Vírgenes del Reino Unido","fr":"Îles Vierges britanniques","ja":"イギリス領ヴァージン諸島","it":"Isole Vergini Britanniche","br":"Ilhas Virgens Britânicas","pt":"Ilhas Virgens Britânicas","nl":"Britse Maagdeneilanden","hr":"Britanski Djevičanski Otoci","fa":"جزایر ویرجین بریتانیا"}},{"region":"Asia","subregion":"South-Eastern Asia","phoneCode":"673","name":"Brunei","isoA2":"BN","isoA3":"BRN","isoN3":"096","translations":{"de":"Brunei","es":"Brunei","fr":"Brunei","ja":"ブルネイ・ダルサラーム","it":"Brunei","br":"Brunei","pt":"Brunei","nl":"Brunei","hr":"Brunej","fa":"برونئی"}},{"region":"Europe","subregion":"Eastern Europe","phoneCode":"359","name":"Bulgaria","isoA2":"BG","isoA3":"BGR","isoN3":"100","translations":{"de":"Bulgarien","es":"Bulgaria","fr":"Bulgarie","ja":"ブルガリア","it":"Bulgaria","br":"Bulgária","pt":"Bulgária","nl":"Bulgarije","hr":"Bugarska","fa":"بلغارستان"}},{"region":"Africa","subregion":"Western Africa","phoneCode":"226","name":"Burkina Faso","isoA2":"BF","isoA3":"BFA","isoN3":"854","translations":{"de":"Burkina Faso","es":"Burkina Faso","fr":"Burkina Faso","ja":"ブルキナファソ","it":"Burkina Faso","br":"Burkina Faso","pt":"Burquina Faso","nl":"Burkina Faso","hr":"Burkina Faso","fa":"بورکینافاسو"}},{"region":"Africa","subregion":"Eastern Africa","phoneCode":"257","name":"Burundi","isoA2":"BI","isoA3":"BDI","isoN3":"108","translations":{"de":"Burundi","es":"Burundi","fr":"Burundi","ja":"ブルンジ","it":"Burundi","br":"Burundi","pt":"Burúndi","nl":"Burundi","hr":"Burundi","fa":"بوروندی"}},{"region":"Africa","subregion":"Western Africa","phoneCode":"238","name":"Cabo Verde","isoA2":"CV","isoA3":"CPV","isoN3":"132","translations":{"de":"Kap Verde","es":"Cabo Verde","fr":"Cap Vert","ja":"カーボベルデ","it":"Capo Verde","br":"Cabo Verde","pt":"Cabo Verde","nl":"Kaapverdië","hr":"Zelenortska Republika","fa":"کیپ ورد"}},{"region":"Asia","subregion":"South-Eastern Asia","phoneCode":"855","name":"Cambodia","isoA2":"KH","isoA3":"KHM","isoN3":"116","translations":{"de":"Kambodscha","es":"Camboya","fr":"Cambodge","ja":"カンボジア","it":"Cambogia","br":"Camboja","pt":"Camboja","nl":"Cambodja","hr":"Kambodža","fa":"کامبوج"}},{"region":"Africa","subregion":"Middle Africa","phoneCode":"237","name":"Cameroon","isoA2":"CM","isoA3":"CMR","isoN3":"120","translations":{"de":"Kamerun","es":"Camerún","fr":"Cameroun","ja":"カメルーン","it":"Camerun","br":"Camarões","pt":"Camarões","nl":"Kameroen","hr":"Kamerun","fa":"کامرون"}},{"region":"Americas","subregion":"Northern America","phoneCode":"1","name":"Canada","isoA2":"CA","isoA3":"CAN","isoN3":"124","translations":{"de":"Kanada","es":"Canadá","fr":"Canada","ja":"カナダ","it":"Canada","br":"Canadá","pt":"Canadá","nl":"Canada","hr":"Kanada","fa":"کانادا"}},{"region":"Americas","subregion":"Caribbean","phoneCode":"1345","name":"Cayman Islands","isoA2":"KY","isoA3":"CYM","isoN3":"136","translations":{"de":"Kaimaninseln","es":"Islas Caimán","fr":"Îles Caïmans","ja":"ケイマン諸島","it":"Isole Cayman","br":"Ilhas Cayman","pt":"Ilhas Caimão","nl":"Caymaneilanden","hr":"Kajmanski otoci","fa":"جزایر کیمن"}},{"region":"Africa","subregion":"Middle Africa","phoneCode":"236","name":"Central African Republic","isoA2":"CF","isoA3":"CAF","isoN3":"140","translations":{"de":"Zentralafrikanische Republik","es":"República Centroafricana","fr":"République centrafricaine","ja":"中央アフリカ共和国","it":"Repubblica Centrafricana","br":"República Centro-Africana","pt":"República Centro-Africana","nl":"Centraal-Afrikaanse Republiek","hr":"Srednjoafrička Republika","fa":"جمهوری آفریقای مرکزی"}},{"region":"Africa","subregion":"Middle Africa","phoneCode":"235","name":"Chad","isoA2":"TD","isoA3":"TCD","isoN3":"148","translations":{"de":"Tschad","es":"Chad","fr":"Tchad","ja":"チャド","it":"Ciad","br":"Chade","pt":"Chade","nl":"Tsjaad","hr":"Čad","fa":"چاد"}},{"region":"Americas","subregion":"South America","phoneCode":"56","name":"Chile","isoA2":"CL","isoA3":"CHL","isoN3":"152","translations":{"de":"Chile","es":"Chile","fr":"Chili","ja":"チリ","it":"Cile","br":"Chile","pt":"Chile","nl":"Chili","hr":"Čile","fa":"شیلی"}},{"region":"Asia","subregion":"Eastern Asia","phoneCode":"86","name":"China","isoA2":"CN","isoA3":"CHN","isoN3":"156","translations":{"de":"China","es":"China","fr":"Chine","ja":"中国","it":"Cina","br":"China","pt":"China","nl":"China","hr":"Kina","fa":"چین"}},{"region":"Oceania","subregion":"Australia and New Zealand","phoneCode":"61","name":"Christmas Island","isoA2":"CX","isoA3":"CXR","isoN3":"162","translations":{"de":"Weihnachtsinsel","es":"Isla de Navidad","fr":"Île Christmas","ja":"クリスマス島","it":"Isola di Natale","br":"Ilha Christmas","pt":"Ilha do Natal","nl":"Christmaseiland","hr":"Božićni otok","fa":"جزیره کریسمس"}},{"region":"Oceania","subregion":"Australia and New Zealand","phoneCode":"61","name":"Cocos Islands","isoA2":"CC","isoA3":"CCK","isoN3":"166","translations":{"de":"Kokosinseln","es":"Islas Cocos o Islas Keeling","fr":"Îles Cocos","ja":"ココス（キーリング）諸島","it":"Isole Cocos e Keeling","br":"Ilhas Cocos","pt":"Ilhas dos Cocos","nl":"Cocoseilanden","hr":"Kokosovi Otoci","fa":"جزایر کوکوس"}},{"region":"Americas","subregion":"South America","phoneCode":"57","name":"Colombia","isoA2":"CO","isoA3":"COL","isoN3":"170","translations":{"de":"Kolumbien","es":"Colombia","fr":"Colombie","ja":"コロンビア","it":"Colombia","br":"Colômbia","pt":"Colômbia","nl":"Colombia","hr":"Kolumbija","fa":"کلمبیا"}},{"region":"Africa","subregion":"Eastern Africa","phoneCode":"269","name":"Comoros","isoA2":"KM","isoA3":"COM","isoN3":"174","translations":{"de":"Union der Komoren","es":"Comoras","fr":"Comores","ja":"コモロ","it":"Comore","br":"Comores","pt":"Comores","nl":"Comoren","hr":"Komori","fa":"کومور"}},{"region":"Africa","subregion":"Middle Africa","phoneCode":"242","name":"Congo - Brazzaville","isoA2":"CG","isoA3":"COG","isoN3":"178","translations":{"de":"Kongo","es":"Congo","fr":"Congo","ja":"コンゴ共和国","it":"Congo","br":"Congo","pt":"Congo","nl":"Congo [Republiek]","hr":"Kongo","fa":"کنگو"}},{"region":"Africa","subregion":"Middle Africa","phoneCode":"243","name":"Congo - Kinshasa","isoA2":"CD","isoA3":"COD","isoN3":"180","translations":{"de":"Kongo (Dem. Rep.)","es":"Congo (Rep. Dem.)","fr":"Congo (Rép. dém.)","ja":"コンゴ民主共和国","it":"Congo (Rep. Dem.)","br":"RD Congo","pt":"RD Congo","nl":"Congo [DRC]","hr":"Kongo, Demokratska Republika","fa":"جمهوری کنگو"}},{"region":"Oceania","subregion":"Polynesia","phoneCode":"682","name":"Cook Islands","isoA2":"CK","isoA3":"COK","isoN3":"184","translations":{"de":"Cookinseln","es":"Islas Cook","fr":"Îles Cook","ja":"クック諸島","it":"Isole Cook","br":"Ilhas Cook","pt":"Ilhas Cook","nl":"Cookeilanden","hr":"Cookovo Otočje","fa":"جزایر کوک"}},{"region":"Americas","subregion":"Central America","phoneCode":"506","name":"Costa Rica","isoA2":"CR","isoA3":"CRI","isoN3":"188","translations":{"de":"Costa Rica","es":"Costa Rica","fr":"Costa Rica","ja":"コスタリカ","it":"Costa Rica","br":"Costa Rica","pt":"Costa Rica","nl":"Costa Rica","hr":"Kostarika","fa":"کاستاریکا"}},{"region":"Europe","subregion":"Southern Europe","phoneCode":"385","name":"Croatia","isoA2":"HR","isoA3":"HRV","isoN3":"191","translations":{"de":"Kroatien","es":"Croacia","fr":"Croatie","ja":"クロアチア","it":"Croazia","br":"Croácia","pt":"Croácia","nl":"Kroatië","hr":"Hrvatska","fa":"کرواسی"}},{"region":"Americas","subregion":"Caribbean","phoneCode":"53","name":"Cuba","isoA2":"CU","isoA3":"CUB","isoN3":"192","translations":{"de":"Kuba","es":"Cuba","fr":"Cuba","ja":"キューバ","it":"Cuba","br":"Cuba","pt":"Cuba","nl":"Cuba","hr":"Kuba","fa":"کوبا"}},{"region":"Americas","subregion":"Caribbean","phoneCode":"599","name":"Curaçao","isoA2":"CW","isoA3":"CUW","isoN3":"531","translations":{"de":"Curaçao","es":null,"fr":"Curaçao","ja":null,"it":"Curaçao","br":"Curaçao","pt":"Curaçao","nl":"Curaçao","hr":null,"fa":"کوراسائو"}},{"region":"Europe","subregion":"Southern Europe","phoneCode":"357","name":"Cyprus","isoA2":"CY","isoA3":"CYP","isoN3":"196","translations":{"de":"Zypern","es":"Chipre","fr":"Chypre","ja":"キプロス","it":"Cipro","br":"Chipre","pt":"Chipre","nl":"Cyprus","hr":"Cipar","fa":"قبرس"}},{"region":"Europe","subregion":"Eastern Europe","phoneCode":"420","name":"Czech Republic","isoA2":"CZ","isoA3":"CZE","isoN3":"203","translations":{"de":"Tschechische Republik","es":"República Checa","fr":"République tchèque","ja":"チェコ","it":"Repubblica Ceca","br":"República Tcheca","pt":"República Checa","nl":"Tsjechië","hr":"Češka","fa":"جمهوری چک"}},{"region":"Africa","subregion":"Western Africa","phoneCode":"225","name":"Côte d'Ivoire","isoA2":"CI","isoA3":"CIV","isoN3":"384","translations":{"de":"Elfenbeinküste","es":"Costa de Marfil","fr":"Côte d'Ivoire","ja":"コートジボワール","it":"Costa D'Avorio","br":"Costa do Marfim","pt":"Costa do Marfim","nl":"Ivoorkust","hr":"Obala Bjelokosti","fa":"ساحل عاج"}},{"region":"Europe","subregion":"Northern Europe","phoneCode":"45","name":"Denmark","isoA2":"DK","isoA3":"DNK","isoN3":"208","translations":{"de":"Dänemark","es":"Dinamarca","fr":"Danemark","ja":"デンマーク","it":"Danimarca","br":"Dinamarca","pt":"Dinamarca","nl":"Denemarken","hr":"Danska","fa":"دانمارک"}},{"region":"Africa","subregion":"Eastern Africa","phoneCode":"253","name":"Djibouti","isoA2":"DJ","isoA3":"DJI","isoN3":"262","translations":{"de":"Dschibuti","es":"Yibuti","fr":"Djibouti","ja":"ジブチ","it":"Gibuti","br":"Djibuti","pt":"Djibuti","nl":"Djibouti","hr":"Džibuti","fa":"جیبوتی"}},{"region":"Americas","subregion":"Caribbean","phoneCode":"1767","name":"Dominica","isoA2":"DM","isoA3":"DMA","isoN3":"212","translations":{"de":"Dominica","es":"Dominica","fr":"Dominique","ja":"ドミニカ国","it":"Dominica","br":"Dominica","pt":"Dominica","nl":"Dominica","hr":"Dominika","fa":"دومینیکا"}},{"region":"Americas","subregion":"Caribbean","phoneCode":"1809","name":"Dominican Republic","isoA2":"DO","isoA3":"DOM","isoN3":"214","translations":{"de":"Dominikanische Republik","es":"República Dominicana","fr":"République dominicaine","ja":"ドミニカ共和国","it":"Repubblica Dominicana","br":"República Dominicana","pt":"República Dominicana","nl":"Dominicaanse Republiek","hr":"Dominikanska Republika","fa":"جمهوری دومینیکن"}},{"region":"Americas","subregion":"South America","phoneCode":"593","name":"Ecuador","isoA2":"EC","isoA3":"ECU","isoN3":"218","translations":{"de":"Ecuador","es":"Ecuador","fr":"Équateur","ja":"エクアドル","it":"Ecuador","br":"Equador","pt":"Equador","nl":"Ecuador","hr":"Ekvador","fa":"اکوادور"}},{"region":"Africa","subregion":"Northern Africa","phoneCode":"20","name":"Egypt","isoA2":"EG","isoA3":"EGY","isoN3":"818","translations":{"de":"Ägypten","es":"Egipto","fr":"Égypte","ja":"エジプト","it":"Egitto","br":"Egito","pt":"Egipto","nl":"Egypte","hr":"Egipat","fa":"مصر"}},{"region":"Americas","subregion":"Central America","phoneCode":"503","name":"El Salvador","isoA2":"SV","isoA3":"SLV","isoN3":"222","translations":{"de":"El Salvador","es":"El Salvador","fr":"Salvador","ja":"エルサルバドル","it":"El Salvador","br":"El Salvador","pt":"El Salvador","nl":"El Salvador","hr":"Salvador","fa":"السالوادور"}},{"region":"Africa","subregion":"Middle Africa","phoneCode":"240","name":"Equatorial Guinea","isoA2":"GQ","isoA3":"GNQ","isoN3":"226","translations":{"de":"Äquatorial-Guinea","es":"Guinea Ecuatorial","fr":"Guinée-Équatoriale","ja":"赤道ギニア","it":"Guinea Equatoriale","br":"Guiné Equatorial","pt":"Guiné Equatorial","nl":"Equatoriaal-Guinea","hr":"Ekvatorijalna Gvineja","fa":"گینه استوایی"}},{"region":"Africa","subregion":"Eastern Africa","phoneCode":"291","name":"Eritrea","isoA2":"ER","isoA3":"ERI","isoN3":"232","translations":{"de":"Eritrea","es":"Eritrea","fr":"Érythrée","ja":"エリトリア","it":"Eritrea","br":"Eritreia","pt":"Eritreia","nl":"Eritrea","hr":"Eritreja","fa":"اریتره"}},{"region":"Europe","subregion":"Northern Europe","phoneCode":"372","name":"Estonia","isoA2":"EE","isoA3":"EST","isoN3":"233","translations":{"de":"Estland","es":"Estonia","fr":"Estonie","ja":"エストニア","it":"Estonia","br":"Estônia","pt":"Estónia","nl":"Estland","hr":"Estonija","fa":"استونی"}},{"region":"Africa","subregion":"Southern Africa","phoneCode":"268","name":"Eswatini","isoA2":"SZ","isoA3":"SWZ","isoN3":"748","translations":{"de":"Swasiland","es":"Suazilandia","fr":"Swaziland","ja":"スワジランド","it":"Swaziland","br":"Suazilândia","pt":"Suazilândia","nl":"Swaziland","hr":"Svazi","fa":"سوازیلند"}},{"region":"Africa","subregion":"Eastern Africa","phoneCode":"251","name":"Ethiopia","isoA2":"ET","isoA3":"ETH","isoN3":"231","translations":{"de":"Äthiopien","es":"Etiopía","fr":"Éthiopie","ja":"エチオピア","it":"Etiopia","br":"Etiópia","pt":"Etiópia","nl":"Ethiopië","hr":"Etiopija","fa":"اتیوپی"}},{"region":"Americas","subregion":"South America","phoneCode":"500","name":"Falkland Islands","isoA2":"FK","isoA3":"FLK","isoN3":"238","translations":{"de":"Falklandinseln","es":"Islas Malvinas","fr":"Îles Malouines","ja":"フォークランド（マルビナス）諸島","it":"Isole Falkland o Isole Malvine","br":"Ilhas Malvinas","pt":"Ilhas Falkland","nl":"Falklandeilanden [Islas Malvinas]","hr":"Falklandski Otoci","fa":"جزایر فالکلند"}},{"region":"Europe","subregion":"Northern Europe","phoneCode":"298","name":"Faroe Islands","isoA2":"FO","isoA3":"FRO","isoN3":"234","translations":{"de":"Färöer-Inseln","es":"Islas Faroe","fr":"Îles Féroé","ja":"フェロー諸島","it":"Isole Far Oer","br":"Ilhas Faroé","pt":"Ilhas Faroé","nl":"Faeröer","hr":"Farski Otoci","fa":"جزایر فارو"}},{"region":"Oceania","subregion":"Melanesia","phoneCode":"679","name":"Fiji","isoA2":"FJ","isoA3":"FJI","isoN3":"242","translations":{"de":"Fidschi","es":"Fiyi","fr":"Fidji","ja":"フィジー","it":"Figi","br":"Fiji","pt":"Fiji","nl":"Fiji","hr":"Fiđi","fa":"فیجی"}},{"region":"Europe","subregion":"Northern Europe","phoneCode":"358","name":"Finland","isoA2":"FI","isoA3":"FIN","isoN3":"246","translations":{"de":"Finnland","es":"Finlandia","fr":"Finlande","ja":"フィンランド","it":"Finlandia","br":"Finlândia","pt":"Finlândia","nl":"Finland","hr":"Finska","fa":"فنلاند"}},{"region":"Europe","subregion":"Western Europe","phoneCode":"33","name":"France","isoA2":"FR","isoA3":"FRA","isoN3":"250","translations":{"de":"Frankreich","es":"Francia","fr":"France","ja":"フランス","it":"Francia","br":"França","pt":"França","nl":"Frankrijk","hr":"Francuska","fa":"فرانسه"}},{"region":"Americas","subregion":"South America","phoneCode":"594","name":"French Guiana","isoA2":"GF","isoA3":"GUF","isoN3":"254","translations":{"de":"Französisch Guyana","es":"Guayana Francesa","fr":"Guayane","ja":"フランス領ギアナ","it":"Guyana francese","br":"Guiana Francesa","pt":"Guiana Francesa","nl":"Frans-Guyana","hr":"Francuska Gvajana","fa":"گویان فرانسه"}},{"region":"Oceania","subregion":"Polynesia","phoneCode":"689","name":"French Polynesia","isoA2":"PF","isoA3":"PYF","isoN3":"258","translations":{"de":"Französisch-Polynesien","es":"Polinesia Francesa","fr":"Polynésie française","ja":"フランス領ポリネシア","it":"Polinesia Francese","br":"Polinésia Francesa","pt":"Polinésia Francesa","nl":"Frans-Polynesië","hr":"Francuska Polinezija","fa":"پلی‌نزی فرانسه"}},{"region":"Africa","subregion":"Southern Africa","name":"French Southern Territories","isoA2":"TF","isoA3":"ATF","isoN3":"260","translations":{"de":"Französische Süd- und Antarktisgebiete","es":"Tierras Australes y Antárticas Francesas","fr":"Terres australes et antarctiques françaises","ja":"フランス領南方・南極地域","it":"Territori Francesi del Sud","br":"Terras Austrais e Antárticas Francesas","pt":"Terras Austrais e Antárticas Francesas","nl":"Franse Gebieden in de zuidelijke Indische Oceaan","hr":"Francuski južni i antarktički teritoriji","fa":"سرزمین‌های جنوبی و جنوبگانی فرانسه"}},{"region":"Africa","subregion":"Middle Africa","phoneCode":"241","name":"Gabon","isoA2":"GA","isoA3":"GAB","isoN3":"266","translations":{"de":"Gabun","es":"Gabón","fr":"Gabon","ja":"ガボン","it":"Gabon","br":"Gabão","pt":"Gabão","nl":"Gabon","hr":"Gabon","fa":"گابن"}},{"region":"Africa","subregion":"Western Africa","phoneCode":"220","name":"Gambia","isoA2":"GM","isoA3":"GMB","isoN3":"270","translations":{"de":"Gambia","es":"Gambia","fr":"Gambie","ja":"ガンビア","it":"Gambia","br":"Gâmbia","pt":"Gâmbia","nl":"Gambia","hr":"Gambija","fa":"گامبیا"}},{"region":"Asia","subregion":"Western Asia","phoneCode":"995","name":"Georgia","isoA2":"GE","isoA3":"GEO","isoN3":"268","translations":{"de":"Georgien","es":"Georgia","fr":"Géorgie","ja":"グルジア","it":"Georgia","br":"Geórgia","pt":"Geórgia","nl":"Georgië","hr":"Gruzija","fa":"گرجستان"}},{"region":"Europe","subregion":"Western Europe","phoneCode":"49","name":"Germany","isoA2":"DE","isoA3":"DEU","isoN3":"276","translations":{"de":"Deutschland","es":"Alemania","fr":"Allemagne","ja":"ドイツ","it":"Germania","br":"Alemanha","pt":"Alemanha","nl":"Duitsland","hr":"Njemačka","fa":"آلمان"}},{"region":"Africa","subregion":"Western Africa","phoneCode":"233","name":"Ghana","isoA2":"GH","isoA3":"GHA","isoN3":"288","translations":{"de":"Ghana","es":"Ghana","fr":"Ghana","ja":"ガーナ","it":"Ghana","br":"Gana","pt":"Gana","nl":"Ghana","hr":"Gana","fa":"غنا"}},{"region":"Europe","subregion":"Southern Europe","phoneCode":"350","name":"Gibraltar","isoA2":"GI","isoA3":"GIB","isoN3":"292","translations":{"de":"Gibraltar","es":"Gibraltar","fr":"Gibraltar","ja":"ジブラルタル","it":"Gibilterra","br":"Gibraltar","pt":"Gibraltar","nl":"Gibraltar","hr":"Gibraltar","fa":"جبل‌طارق"}},{"region":"Europe","subregion":"Southern Europe","phoneCode":"30","name":"Greece","isoA2":"GR","isoA3":"GRC","isoN3":"300","translations":{"de":"Griechenland","es":"Grecia","fr":"Grèce","ja":"ギリシャ","it":"Grecia","br":"Grécia","pt":"Grécia","nl":"Griekenland","hr":"Grčka","fa":"یونان"}},{"region":"Americas","subregion":"Northern America","phoneCode":"299","name":"Greenland","isoA2":"GL","isoA3":"GRL","isoN3":"304","translations":{"de":"Grönland","es":"Groenlandia","fr":"Groenland","ja":"グリーンランド","it":"Groenlandia","br":"Groelândia","pt":"Gronelândia","nl":"Groenland","hr":"Grenland","fa":"گرینلند"}},{"region":"Americas","subregion":"Caribbean","phoneCode":"1473","name":"Grenada","isoA2":"GD","isoA3":"GRD","isoN3":"308","translations":{"de":"Grenada","es":"Grenada","fr":"Grenade","ja":"グレナダ","it":"Grenada","br":"Granada","pt":"Granada","nl":"Grenada","hr":"Grenada","fa":"گرنادا"}},{"region":"Americas","subregion":"Caribbean","phoneCode":"590","name":"Guadeloupe","isoA2":"GP","isoA3":"GLP","isoN3":"312","translations":{"de":"Guadeloupe","es":"Guadalupe","fr":"Guadeloupe","ja":"グアドループ","it":"Guadeloupa","br":"Guadalupe","pt":"Guadalupe","nl":"Guadeloupe","hr":"Gvadalupa","fa":"جزیره گوادلوپ"}},{"region":"Oceania","subregion":"Micronesia","phoneCode":"1671","name":"Guam","isoA2":"GU","isoA3":"GUM","isoN3":"316","translations":{"de":"Guam","es":"Guam","fr":"Guam","ja":"グアム","it":"Guam","br":"Guam","pt":"Guame","nl":"Guam","hr":"Guam","fa":"گوام"}},{"region":"Americas","subregion":"Central America","phoneCode":"502","name":"Guatemala","isoA2":"GT","isoA3":"GTM","isoN3":"320","translations":{"de":"Guatemala","es":"Guatemala","fr":"Guatemala","ja":"グアテマラ","it":"Guatemala","br":"Guatemala","pt":"Guatemala","nl":"Guatemala","hr":"Gvatemala","fa":"گواتمالا"}},{"region":"Europe","subregion":"Northern Europe","phoneCode":"44","name":"Guernsey","isoA2":"GG","isoA3":"GGY","isoN3":"831","translations":{"de":"Guernsey","es":"Guernsey","fr":"Guernesey","ja":"ガーンジー","it":"Guernsey","br":"Guernsey","pt":"Guernsey","nl":"Guernsey","hr":"Guernsey","fa":"گرنزی"}},{"region":"Africa","subregion":"Western Africa","phoneCode":"224","name":"Guinea","isoA2":"GN","isoA3":"GIN","isoN3":"324","translations":{"de":"Guinea","es":"Guinea","fr":"Guinée","ja":"ギニア","it":"Guinea","br":"Guiné","pt":"Guiné","nl":"Guinee","hr":"Gvineja","fa":"گینه"}},{"region":"Africa","subregion":"Western Africa","phoneCode":"245","name":"Guinea-Bissau","isoA2":"GW","isoA3":"GNB","isoN3":"624","translations":{"de":"Guinea-Bissau","es":"Guinea-Bisáu","fr":"Guinée-Bissau","ja":"ギニアビサウ","it":"Guinea-Bissau","br":"Guiné-Bissau","pt":"Guiné-Bissau","nl":"Guinee-Bissau","hr":"Gvineja Bisau","fa":"گینه بیسائو"}},{"region":"Americas","subregion":"South America","phoneCode":"592","name":"Guyana","isoA2":"GY","isoA3":"GUY","isoN3":"328","translations":{"de":"Guyana","es":"Guyana","fr":"Guyane","ja":"ガイアナ","it":"Guyana","br":"Guiana","pt":"Guiana","nl":"Guyana","hr":"Gvajana","fa":"گویان"}},{"region":"Americas","subregion":"Caribbean","phoneCode":"509","name":"Haiti","isoA2":"HT","isoA3":"HTI","isoN3":"332","translations":{"de":"Haiti","es":"Haiti","fr":"Haïti","ja":"ハイチ","it":"Haiti","br":"Haiti","pt":"Haiti","nl":"Haïti","hr":"Haiti","fa":"هائیتی"}},{"region":"Polar","name":"Heard and McDonald Islands","isoA2":"HM","isoA3":"HMD","isoN3":"334","translations":{"de":"Heard und die McDonaldinseln","es":"Islas Heard y McDonald","fr":"Îles Heard-et-MacDonald","ja":"ハード島とマクドナルド諸島","it":"Isole Heard e McDonald","br":"Ilha Heard e Ilhas McDonald","pt":"Ilha Heard e Ilhas McDonald","nl":"Heard- en McDonaldeilanden","hr":"Otok Heard i otočje McDonald","fa":"جزیره هرد و جزایر مک‌دونالد"}},{"region":"Americas","subregion":"Central America","phoneCode":"504","name":"Honduras","isoA2":"HN","isoA3":"HND","isoN3":"340","translations":{"de":"Honduras","es":"Honduras","fr":"Honduras","ja":"ホンジュラス","it":"Honduras","br":"Honduras","pt":"Honduras","nl":"Honduras","hr":"Honduras","fa":"هندوراس"}},{"region":"Asia","subregion":"Eastern Asia","phoneCode":"852","name":"Hong Kong","isoA2":"HK","isoA3":"HKG","isoN3":"344","translations":{"de":"Hong Kong","es":"Hong Kong","fr":"Hong Kong","ja":"香港","it":"Hong Kong","br":"Hong Kong","pt":"Hong Kong","nl":"Hongkong","hr":"Hong Kong","fa":"هنگ‌کنگ"}},{"region":"Europe","subregion":"Eastern Europe","phoneCode":"36","name":"Hungary","isoA2":"HU","isoA3":"HUN","isoN3":"348","translations":{"de":"Ungarn","es":"Hungría","fr":"Hongrie","ja":"ハンガリー","it":"Ungheria","br":"Hungria","pt":"Hungria","nl":"Hongarije","hr":"Mađarska","fa":"مجارستان"}},{"region":"Europe","subregion":"Northern Europe","phoneCode":"354","name":"Iceland","isoA2":"IS","isoA3":"ISL","isoN3":"352","translations":{"de":"Island","es":"Islandia","fr":"Islande","ja":"アイスランド","it":"Islanda","br":"Islândia","pt":"Islândia","nl":"IJsland","hr":"Island","fa":"ایسلند"}},{"region":"Asia","subregion":"Southern Asia","phoneCode":"91","name":"India","isoA2":"IN","isoA3":"IND","isoN3":"356","translations":{"de":"Indien","es":"India","fr":"Inde","ja":"インド","it":"India","br":"Índia","pt":"Índia","nl":"India","hr":"Indija","fa":"هند"}},{"region":"Asia","subregion":"South-Eastern Asia","phoneCode":"62","name":"Indonesia","isoA2":"ID","isoA3":"IDN","isoN3":"360","translations":{"de":"Indonesien","es":"Indonesia","fr":"Indonésie","ja":"インドネシア","it":"Indonesia","br":"Indonésia","pt":"Indonésia","nl":"Indonesië","hr":"Indonezija","fa":"اندونزی"}},{"region":"Asia","subregion":"Southern Asia","phoneCode":"98","name":"Iran","isoA2":"IR","isoA3":"IRN","isoN3":"364","translations":{"de":"Iran","es":"Iran","fr":"Iran","ja":"イラン・イスラム共和国","it":null,"br":"Irã","pt":"Irão","nl":"Iran","hr":"Iran","fa":"ایران"}},{"region":"Asia","subregion":"Western Asia","phoneCode":"964","name":"Iraq","isoA2":"IQ","isoA3":"IRQ","isoN3":"368","translations":{"de":"Irak","es":"Irak","fr":"Irak","ja":"イラク","it":"Iraq","br":"Iraque","pt":"Iraque","nl":"Irak","hr":"Irak","fa":"عراق"}},{"region":"Europe","subregion":"Northern Europe","phoneCode":"353","name":"Ireland","isoA2":"IE","isoA3":"IRL","isoN3":"372","translations":{"de":"Irland","es":"Irlanda","fr":"Irlande","ja":"アイルランド","it":"Irlanda","br":"Irlanda","pt":"Irlanda","nl":"Ierland","hr":"Irska","fa":"ایرلند"}},{"region":"Europe","subregion":"Northern Europe","phoneCode":"44","name":"Isle of Man","isoA2":"IM","isoA3":"IMN","isoN3":"833","translations":{"de":"Insel Man","es":"Isla de Man","fr":"Île de Man","ja":"マン島","it":"Isola di Man","br":"Ilha de Man","pt":"Ilha de Man","nl":"Isle of Man","hr":"Otok Man","fa":"جزیره من"}},{"region":"Asia","subregion":"Western Asia","phoneCode":"972","name":"Israel","isoA2":"IL","isoA3":"ISR","isoN3":"376","translations":{"de":"Israel","es":"Israel","fr":"Israël","ja":"イスラエル","it":"Israele","br":"Israel","pt":"Israel","nl":"Israël","hr":"Izrael","fa":"اسرائیل"}},{"region":"Europe","subregion":"Southern Europe","phoneCode":"39","name":"Italy","isoA2":"IT","isoA3":"ITA","isoN3":"380","translations":{"de":"Italien","es":"Italia","fr":"Italie","ja":"イタリア","it":"Italia","br":"Itália","pt":"Itália","nl":"Italië","hr":"Italija","fa":"ایتالیا"}},{"region":"Americas","subregion":"Caribbean","phoneCode":"1876","name":"Jamaica","isoA2":"JM","isoA3":"JAM","isoN3":"388","translations":{"de":"Jamaika","es":"Jamaica","fr":"Jamaïque","ja":"ジャマイカ","it":"Giamaica","br":"Jamaica","pt":"Jamaica","nl":"Jamaica","hr":"Jamajka","fa":"جامائیکا"}},{"region":"Asia","subregion":"Eastern Asia","phoneCode":"81","name":"Japan","isoA2":"JP","isoA3":"JPN","isoN3":"392","translations":{"de":"Japan","es":"Japón","fr":"Japon","ja":"日本","it":"Giappone","br":"Japão","pt":"Japão","nl":"Japan","hr":"Japan","fa":"ژاپن"}},{"region":"Europe","subregion":"Northern Europe","phoneCode":"44","name":"Jersey","isoA2":"JE","isoA3":"JEY","isoN3":"832","translations":{"de":"Jersey","es":"Jersey","fr":"Jersey","ja":"ジャージー","it":"Isola di Jersey","br":"Jersey","pt":"Jersey","nl":"Jersey","hr":"Jersey","fa":"جرزی"}},{"region":"Asia","subregion":"Western Asia","phoneCode":"962","name":"Jordan","isoA2":"JO","isoA3":"JOR","isoN3":"400","translations":{"de":"Jordanien","es":"Jordania","fr":"Jordanie","ja":"ヨルダン","it":"Giordania","br":"Jordânia","pt":"Jordânia","nl":"Jordanië","hr":"Jordan","fa":"اردن"}},{"region":"Asia","subregion":"Central Asia","phoneCode":"76","name":"Kazakhstan","isoA2":"KZ","isoA3":"KAZ","isoN3":"398","translations":{"de":"Kasachstan","es":"Kazajistán","fr":"Kazakhstan","ja":"カザフスタン","it":"Kazakistan","br":"Cazaquistão","pt":"Cazaquistão","nl":"Kazachstan","hr":"Kazahstan","fa":"قزاقستان"}},{"region":"Africa","subregion":"Eastern Africa","phoneCode":"254","name":"Kenya","isoA2":"KE","isoA3":"KEN","isoN3":"404","translations":{"de":"Kenia","es":"Kenia","fr":"Kenya","ja":"ケニア","it":"Kenya","br":"Quênia","pt":"Quénia","nl":"Kenia","hr":"Kenija","fa":"کنیا"}},{"region":"Oceania","subregion":"Micronesia","phoneCode":"686","name":"Kiribati","isoA2":"KI","isoA3":"KIR","isoN3":"296","translations":{"de":"Kiribati","es":"Kiribati","fr":"Kiribati","ja":"キリバス","it":"Kiribati","br":"Kiribati","pt":"Quiribáti","nl":"Kiribati","hr":"Kiribati","fa":"کیریباتی"}},{"region":"Europe","subregion":"Eastern Europe","phoneCode":"383","name":"Kosovo","isoA2":"XK","isoA3":"KOS","isoN3":null,"translations":{"de":null,"es":"Kosovo","fr":null,"ja":null,"it":null,"br":"Kosovo","pt":"Kosovo","nl":null,"hr":"Kosovo","fa":"کوزوو"}},{"region":"Asia","subregion":"Western Asia","phoneCode":"965","name":"Kuwait","isoA2":"KW","isoA3":"KWT","isoN3":"414","translations":{"de":"Kuwait","es":"Kuwait","fr":"Koweït","ja":"クウェート","it":"Kuwait","br":"Kuwait","pt":"Kuwait","nl":"Koeweit","hr":"Kuvajt","fa":"کویت"}},{"region":"Asia","subregion":"Central Asia","phoneCode":"996","name":"Kyrgyzstan","isoA2":"KG","isoA3":"KGZ","isoN3":"417","translations":{"de":"Kirgisistan","es":"Kirguizistán","fr":"Kirghizistan","ja":"キルギス","it":"Kirghizistan","br":"Quirguistão","pt":"Quirguizistão","nl":"Kirgizië","hr":"Kirgistan","fa":"قرقیزستان"}},{"region":"Asia","subregion":"South-Eastern Asia","phoneCode":"856","name":"Laos","isoA2":"LA","isoA3":"LAO","isoN3":"418","translations":{"de":"Laos","es":"Laos","fr":"Laos","ja":"ラオス人民民主共和国","it":"Laos","br":"Laos","pt":"Laos","nl":"Laos","hr":"Laos","fa":"لائوس"}},{"region":"Europe","subregion":"Northern Europe","phoneCode":"371","name":"Latvia","isoA2":"LV","isoA3":"LVA","isoN3":"428","translations":{"de":"Lettland","es":"Letonia","fr":"Lettonie","ja":"ラトビア","it":"Lettonia","br":"Letônia","pt":"Letónia","nl":"Letland","hr":"Latvija","fa":"لتونی"}},{"region":"Asia","subregion":"Western Asia","phoneCode":"961","name":"Lebanon","isoA2":"LB","isoA3":"LBN","isoN3":"422","translations":{"de":"Libanon","es":"Líbano","fr":"Liban","ja":"レバノン","it":"Libano","br":"Líbano","pt":"Líbano","nl":"Libanon","hr":"Libanon","fa":"لبنان"}},{"region":"Africa","subregion":"Southern Africa","phoneCode":"266","name":"Lesotho","isoA2":"LS","isoA3":"LSO","isoN3":"426","translations":{"de":"Lesotho","es":"Lesotho","fr":"Lesotho","ja":"レソト","it":"Lesotho","br":"Lesoto","pt":"Lesoto","nl":"Lesotho","hr":"Lesoto","fa":"لسوتو"}},{"region":"Africa","subregion":"Western Africa","phoneCode":"231","name":"Liberia","isoA2":"LR","isoA3":"LBR","isoN3":"430","translations":{"de":"Liberia","es":"Liberia","fr":"Liberia","ja":"リベリア","it":"Liberia","br":"Libéria","pt":"Libéria","nl":"Liberia","hr":"Liberija","fa":"لیبریا"}},{"region":"Africa","subregion":"Northern Africa","phoneCode":"218","name":"Libya","isoA2":"LY","isoA3":"LBY","isoN3":"434","translations":{"de":"Libyen","es":"Libia","fr":"Libye","ja":"リビア","it":"Libia","br":"Líbia","pt":"Líbia","nl":"Libië","hr":"Libija","fa":"لیبی"}},{"region":"Europe","subregion":"Western Europe","phoneCode":"423","name":"Liechtenstein","isoA2":"LI","isoA3":"LIE","isoN3":"438","translations":{"de":"Liechtenstein","es":"Liechtenstein","fr":"Liechtenstein","ja":"リヒテンシュタイン","it":"Liechtenstein","br":"Liechtenstein","pt":"Listenstaine","nl":"Liechtenstein","hr":"Lihtenštajn","fa":"لیختن‌اشتاین"}},{"region":"Europe","subregion":"Northern Europe","phoneCode":"370","name":"Lithuania","isoA2":"LT","isoA3":"LTU","isoN3":"440","translations":{"de":"Litauen","es":"Lituania","fr":"Lituanie","ja":"リトアニア","it":"Lituania","br":"Lituânia","pt":"Lituânia","nl":"Litouwen","hr":"Litva","fa":"لیتوانی"}},{"region":"Europe","subregion":"Western Europe","phoneCode":"352","name":"Luxembourg","isoA2":"LU","isoA3":"LUX","isoN3":"442","translations":{"de":"Luxemburg","es":"Luxemburgo","fr":"Luxembourg","ja":"ルクセンブルク","it":"Lussemburgo","br":"Luxemburgo","pt":"Luxemburgo","nl":"Luxemburg","hr":"Luksemburg","fa":"لوکزامبورگ"}},{"region":"Asia","subregion":"Eastern Asia","phoneCode":"853","name":"Macao","isoA2":"MO","isoA3":"MAC","isoN3":"446","translations":{"de":"Macao","es":"Macao","fr":"Macao","ja":"マカオ","it":"Macao","br":"Macau","pt":"Macau","nl":"Macao","hr":"Makao","fa":"مکائو"}},{"region":"Africa","subregion":"Eastern Africa","phoneCode":"261","name":"Madagascar","isoA2":"MG","isoA3":"MDG","isoN3":"450","translations":{"de":"Madagaskar","es":"Madagascar","fr":"Madagascar","ja":"マダガスカル","it":"Madagascar","br":"Madagascar","pt":"Madagáscar","nl":"Madagaskar","hr":"Madagaskar","fa":"ماداگاسکار"}},{"region":"Africa","subregion":"Eastern Africa","phoneCode":"265","name":"Malawi","isoA2":"MW","isoA3":"MWI","isoN3":"454","translations":{"de":"Malawi","es":"Malawi","fr":"Malawi","ja":"マラウイ","it":"Malawi","br":"Malawi","pt":"Malávi","nl":"Malawi","hr":"Malavi","fa":"مالاوی"}},{"region":"Asia","subregion":"South-Eastern Asia","phoneCode":"60","name":"Malaysia","isoA2":"MY","isoA3":"MYS","isoN3":"458","translations":{"de":"Malaysia","es":"Malasia","fr":"Malaisie","ja":"マレーシア","it":"Malesia","br":"Malásia","pt":"Malásia","nl":"Maleisië","hr":"Malezija","fa":"مالزی"}},{"region":"Asia","subregion":"Southern Asia","phoneCode":"960","name":"Maldives","isoA2":"MV","isoA3":"MDV","isoN3":"462","translations":{"de":"Malediven","es":"Maldivas","fr":"Maldives","ja":"モルディブ","it":"Maldive","br":"Maldivas","pt":"Maldivas","nl":"Maldiven","hr":"Maldivi","fa":"مالدیو"}},{"region":"Africa","subregion":"Western Africa","phoneCode":"223","name":"Mali","isoA2":"ML","isoA3":"MLI","isoN3":"466","translations":{"de":"Mali","es":"Mali","fr":"Mali","ja":"マリ","it":"Mali","br":"Mali","pt":"Mali","nl":"Mali","hr":"Mali","fa":"مالی"}},{"region":"Europe","subregion":"Southern Europe","phoneCode":"356","name":"Malta","isoA2":"MT","isoA3":"MLT","isoN3":"470","translations":{"de":"Malta","es":"Malta","fr":"Malte","ja":"マルタ","it":"Malta","br":"Malta","pt":"Malta","nl":"Malta","hr":"Malta","fa":"مالت"}},{"region":"Oceania","subregion":"Micronesia","phoneCode":"692","name":"Marshall Islands","isoA2":"MH","isoA3":"MHL","isoN3":"584","translations":{"de":"Marshallinseln","es":"Islas Marshall","fr":"Îles Marshall","ja":"マーシャル諸島","it":"Isole Marshall","br":"Ilhas Marshall","pt":"Ilhas Marshall","nl":"Marshalleilanden","hr":"Maršalovi Otoci","fa":"جزایر مارشال"}},{"region":"Americas","subregion":"Caribbean","phoneCode":"596","name":"Martinique","isoA2":"MQ","isoA3":"MTQ","isoN3":"474","translations":{"de":"Martinique","es":"Martinica","fr":"Martinique","ja":"マルティニーク","it":"Martinica","br":"Martinica","pt":"Martinica","nl":"Martinique","hr":"Martinique","fa":"مونتسرات"}},{"region":"Africa","subregion":"Western Africa","phoneCode":"222","name":"Mauritania","isoA2":"MR","isoA3":"MRT","isoN3":"478","translations":{"de":"Mauretanien","es":"Mauritania","fr":"Mauritanie","ja":"モーリタニア","it":"Mauritania","br":"Mauritânia","pt":"Mauritânia","nl":"Mauritanië","hr":"Mauritanija","fa":"موریتانی"}},{"region":"Africa","subregion":"Eastern Africa","phoneCode":"230","name":"Mauritius","isoA2":"MU","isoA3":"MUS","isoN3":"480","translations":{"de":"Mauritius","es":"Mauricio","fr":"Île Maurice","ja":"モーリシャス","it":"Mauritius","br":"Maurício","pt":"Maurícia","nl":"Mauritius","hr":"Mauricijus","fa":"موریس"}},{"region":"Africa","subregion":"Eastern Africa","phoneCode":"262","name":"Mayotte","isoA2":"YT","isoA3":"MYT","isoN3":"175","translations":{"de":"Mayotte","es":"Mayotte","fr":"Mayotte","ja":"マヨット","it":"Mayotte","br":"Mayotte","pt":"Mayotte","nl":"Mayotte","hr":"Mayotte","fa":"مایوت"}},{"region":"Americas","subregion":"Central America","phoneCode":"52","name":"Mexico","isoA2":"MX","isoA3":"MEX","isoN3":"484","translations":{"de":"Mexiko","es":"México","fr":"Mexique","ja":"メキシコ","it":"Messico","br":"México","pt":"México","nl":"Mexico","hr":"Meksiko","fa":"مکزیک"}},{"region":"Oceania","subregion":"Micronesia","phoneCode":"691","name":"Micronesia","isoA2":"FM","isoA3":"FSM","isoN3":"583","translations":{"de":"Mikronesien","es":"Micronesia","fr":"Micronésie","ja":"ミクロネシア連邦","it":"Micronesia","br":"Micronésia","pt":"Micronésia","nl":"Micronesië","hr":"Mikronezija","fa":"ایالات فدرال میکرونزی"}},{"region":"Europe","subregion":"Eastern Europe","phoneCode":"373","name":"Moldova","isoA2":"MD","isoA3":"MDA","isoN3":"498","translations":{"de":"Moldawie","es":"Moldavia","fr":"Moldavie","ja":"モルドバ共和国","it":"Moldavia","br":"Moldávia","pt":"Moldávia","nl":"Moldavië","hr":"Moldova","fa":"مولداوی"}},{"region":"Europe","subregion":"Western Europe","phoneCode":"377","name":"Monaco","isoA2":"MC","isoA3":"MCO","isoN3":"492","translations":{"de":"Monaco","es":"Mónaco","fr":"Monaco","ja":"モナコ","it":"Principato di Monaco","br":"Mônaco","pt":"Mónaco","nl":"Monaco","hr":"Monako","fa":"موناکو"}},{"region":"Asia","subregion":"Eastern Asia","phoneCode":"976","name":"Mongolia","isoA2":"MN","isoA3":"MNG","isoN3":"496","translations":{"de":"Mongolei","es":"Mongolia","fr":"Mongolie","ja":"モンゴル","it":"Mongolia","br":"Mongólia","pt":"Mongólia","nl":"Mongolië","hr":"Mongolija","fa":"مغولستان"}},{"region":"Europe","subregion":"Southern Europe","phoneCode":"382","name":"Montenegro","isoA2":"ME","isoA3":"MNE","isoN3":"499","translations":{"de":"Montenegro","es":"Montenegro","fr":"Monténégro","ja":"モンテネグロ","it":"Montenegro","br":"Montenegro","pt":"Montenegro","nl":"Montenegro","hr":"Crna Gora","fa":"مونته‌نگرو"}},{"region":"Americas","subregion":"Caribbean","phoneCode":"1664","name":"Montserrat","isoA2":"MS","isoA3":"MSR","isoN3":"500","translations":{"de":"Montserrat","es":"Montserrat","fr":"Montserrat","ja":"モントセラト","it":"Montserrat","br":"Montserrat","pt":"Monserrate","nl":"Montserrat","hr":"Montserrat","fa":"مایوت"}},{"region":"Africa","subregion":"Northern Africa","phoneCode":"212","name":"Morocco","isoA2":"MA","isoA3":"MAR","isoN3":"504","translations":{"de":"Marokko","es":"Marruecos","fr":"Maroc","ja":"モロッコ","it":"Marocco","br":"Marrocos","pt":"Marrocos","nl":"Marokko","hr":"Maroko","fa":"مراکش"}},{"region":"Africa","subregion":"Eastern Africa","phoneCode":"258","name":"Mozambique","isoA2":"MZ","isoA3":"MOZ","isoN3":"508","translations":{"de":"Mosambik","es":"Mozambique","fr":"Mozambique","ja":"モザンビーク","it":"Mozambico","br":"Moçambique","pt":"Moçambique","nl":"Mozambique","hr":"Mozambik","fa":"موزامبیک"}},{"region":"Asia","subregion":"South-Eastern Asia","phoneCode":"95","name":"Myanmar","isoA2":"MM","isoA3":"MMR","isoN3":"104","translations":{"de":"Myanmar","es":"Myanmar","fr":"Myanmar","ja":"ミャンマー","it":"Birmania","br":"Myanmar","pt":"Myanmar","nl":"Myanmar","hr":"Mijanmar","fa":"میانمار"}},{"region":"Africa","subregion":"Southern Africa","phoneCode":"264","name":"Namibia","isoA2":"NA","isoA3":"NAM","isoN3":"516","translations":{"de":"Namibia","es":"Namibia","fr":"Namibie","ja":"ナミビア","it":"Namibia","br":"Namíbia","pt":"Namíbia","nl":"Namibië","hr":"Namibija","fa":"نامیبیا"}},{"region":"Oceania","subregion":"Micronesia","phoneCode":"674","name":"Nauru","isoA2":"NR","isoA3":"NRU","isoN3":"520","translations":{"de":"Nauru","es":"Nauru","fr":"Nauru","ja":"ナウル","it":"Nauru","br":"Nauru","pt":"Nauru","nl":"Nauru","hr":"Nauru","fa":"نائورو"}},{"region":"Asia","subregion":"Southern Asia","phoneCode":"977","name":"Nepal","isoA2":"NP","isoA3":"NPL","isoN3":"524","translations":{"de":"Népal","es":"Nepal","fr":"Népal","ja":"ネパール","it":"Nepal","br":"Nepal","pt":"Nepal","nl":"Nepal","hr":"Nepal","fa":"نپال"}},{"region":"Europe","subregion":"Western Europe","phoneCode":"31","name":"Netherlands","isoA2":"NL","isoA3":"NLD","isoN3":"528","translations":{"de":"Niederlande","es":"Países Bajos","fr":"Pays-Bas","ja":"オランダ","it":"Paesi Bassi","br":"Holanda","pt":"Países Baixos","nl":"Nederland","hr":"Nizozemska","fa":"پادشاهی هلند"}},{"region":"Oceania","subregion":"Melanesia","phoneCode":"687","name":"New Caledonia","isoA2":"NC","isoA3":"NCL","isoN3":"540","translations":{"de":"Neukaledonien","es":"Nueva Caledonia","fr":"Nouvelle-Calédonie","ja":"ニューカレドニア","it":"Nuova Caledonia","br":"Nova Caledônia","pt":"Nova Caledónia","nl":"Nieuw-Caledonië","hr":"Nova Kaledonija","fa":"کالدونیای جدید"}},{"region":"Oceania","subregion":"Australia and New Zealand","phoneCode":"64","name":"New Zealand","isoA2":"NZ","isoA3":"NZL","isoN3":"554","translations":{"de":"Neuseeland","es":"Nueva Zelanda","fr":"Nouvelle-Zélande","ja":"ニュージーランド","it":"Nuova Zelanda","br":"Nova Zelândia","pt":"Nova Zelândia","nl":"Nieuw-Zeeland","hr":"Novi Zeland","fa":"نیوزیلند"}},{"region":"Americas","subregion":"Central America","phoneCode":"505","name":"Nicaragua","isoA2":"NI","isoA3":"NIC","isoN3":"558","translations":{"de":"Nicaragua","es":"Nicaragua","fr":"Nicaragua","ja":"ニカラグア","it":"Nicaragua","br":"Nicarágua","pt":"Nicarágua","nl":"Nicaragua","hr":"Nikaragva","fa":"نیکاراگوئه"}},{"region":"Africa","subregion":"Western Africa","phoneCode":"227","name":"Niger","isoA2":"NE","isoA3":"NER","isoN3":"562","translations":{"de":"Niger","es":"Níger","fr":"Niger","ja":"ニジェール","it":"Niger","br":"Níger","pt":"Níger","nl":"Niger","hr":"Niger","fa":"نیجر"}},{"region":"Africa","subregion":"Western Africa","phoneCode":"234","name":"Nigeria","isoA2":"NG","isoA3":"NGA","isoN3":"566","translations":{"de":"Nigeria","es":"Nigeria","fr":"Nigéria","ja":"ナイジェリア","it":"Nigeria","br":"Nigéria","pt":"Nigéria","nl":"Nigeria","hr":"Nigerija","fa":"نیجریه"}},{"region":"Oceania","subregion":"Polynesia","phoneCode":"683","name":"Niue","isoA2":"NU","isoA3":"NIU","isoN3":"570","translations":{"de":"Niue","es":"Niue","fr":"Niue","ja":"ニウエ","it":"Niue","br":"Niue","pt":"Niue","nl":"Niue","hr":"Niue","fa":"نیووی"}},{"region":"Oceania","subregion":"Australia and New Zealand","phoneCode":"672","name":"Norfolk Island","isoA2":"NF","isoA3":"NFK","isoN3":"574","translations":{"de":"Norfolkinsel","es":"Isla de Norfolk","fr":"Île de Norfolk","ja":"ノーフォーク島","it":"Isola Norfolk","br":"Ilha Norfolk","pt":"Ilha Norfolk","nl":"Norfolkeiland","hr":"Otok Norfolk","fa":"جزیره نورفک"}},{"region":"Asia","subregion":"Eastern Asia","phoneCode":"850","name":"North Korea","isoA2":"KP","isoA3":"PRK","isoN3":"408","translations":{"de":"Nordkorea","es":"Corea del Norte","fr":"Corée du Nord","ja":"朝鮮民主主義人民共和国","it":"Corea del Nord","br":"Coreia do Norte","pt":"Coreia do Norte","nl":"Noord-Korea","hr":"Sjeverna Koreja","fa":"کره جنوبی"}},{"region":"Europe","subregion":"Southern Europe","phoneCode":"389","name":"North Macedonia","isoA2":"MK","isoA3":"MKD","isoN3":"807","translations":{"de":"Mazedonien","es":"Macedonia","fr":"Macédoine","ja":"マケドニア旧ユーゴスラビア共和国","it":"Macedonia","br":"Macedônia","pt":"Macedónia","nl":"Macedonië","hr":"Makedonija","fa":""}},{"region":"Oceania","subregion":"Micronesia","phoneCode":"1670","name":"Northern Mariana Islands","isoA2":"MP","isoA3":"MNP","isoN3":"580","translations":{"de":"Nördliche Marianen","es":"Islas Marianas del Norte","fr":"Îles Mariannes du Nord","ja":"北マリアナ諸島","it":"Isole Marianne Settentrionali","br":"Ilhas Marianas","pt":"Ilhas Marianas","nl":"Noordelijke Marianeneilanden","hr":"Sjevernomarijanski otoci","fa":"جزایر ماریانای شمالی"}},{"region":"Europe","subregion":"Northern Europe","phoneCode":"47","name":"Norway","isoA2":"NO","isoA3":"NOR","isoN3":"578","translations":{"de":"Norwegen","es":"Noruega","fr":"Norvège","ja":"ノルウェー","it":"Norvegia","br":"Noruega","pt":"Noruega","nl":"Noorwegen","hr":"Norveška","fa":"نروژ"}},{"region":"Asia","subregion":"Western Asia","phoneCode":"968","name":"Oman","isoA2":"OM","isoA3":"OMN","isoN3":"512","translations":{"de":"Oman","es":"Omán","fr":"Oman","ja":"オマーン","it":"oman","br":"Omã","pt":"Omã","nl":"Oman","hr":"Oman","fa":"عمان"}},{"region":"Asia","subregion":"Southern Asia","phoneCode":"92","name":"Pakistan","isoA2":"PK","isoA3":"PAK","isoN3":"586","translations":{"de":"Pakistan","es":"Pakistán","fr":"Pakistan","ja":"パキスタン","it":"Pakistan","br":"Paquistão","pt":"Paquistão","nl":"Pakistan","hr":"Pakistan","fa":"پاکستان"}},{"region":"Oceania","subregion":"Micronesia","phoneCode":"680","name":"Palau","isoA2":"PW","isoA3":"PLW","isoN3":"585","translations":{"de":"Palau","es":"Palau","fr":"Palaos","ja":"パラオ","it":"Palau","br":"Palau","pt":"Palau","nl":"Palau","hr":"Palau","fa":"پالائو"}},{"region":"Asia","subregion":"Western Asia","phoneCode":"970","name":"Palestine","isoA2":"PS","isoA3":"PSE","isoN3":"275","translations":{"de":"Palästina","es":"Palestina","fr":"Palestine","ja":"パレスチナ","it":"Palestina","br":"Palestina","pt":"Palestina","nl":"Palestijnse gebieden","hr":"Palestina","fa":"فلسطین"}},{"region":"Americas","subregion":"Central America","phoneCode":"507","name":"Panama","isoA2":"PA","isoA3":"PAN","isoN3":"591","translations":{"de":"Panama","es":"Panamá","fr":"Panama","ja":"パナマ","it":"Panama","br":"Panamá","pt":"Panamá","nl":"Panama","hr":"Panama","fa":"پاناما"}},{"region":"Oceania","subregion":"Melanesia","phoneCode":"675","name":"Papua New Guinea","isoA2":"PG","isoA3":"PNG","isoN3":"598","translations":{"de":"Papua-Neuguinea","es":"Papúa Nueva Guinea","fr":"Papouasie-Nouvelle-Guinée","ja":"パプアニューギニア","it":"Papua Nuova Guinea","br":"Papua Nova Guiné","pt":"Papua Nova Guiné","nl":"Papoea-Nieuw-Guinea","hr":"Papua Nova Gvineja","fa":"پاپوآ گینه نو"}},{"region":"Americas","subregion":"South America","phoneCode":"595","name":"Paraguay","isoA2":"PY","isoA3":"PRY","isoN3":"600","translations":{"de":"Paraguay","es":"Paraguay","fr":"Paraguay","ja":"パラグアイ","it":"Paraguay","br":"Paraguai","pt":"Paraguai","nl":"Paraguay","hr":"Paragvaj","fa":"پاراگوئه"}},{"region":"Americas","subregion":"South America","phoneCode":"51","name":"Peru","isoA2":"PE","isoA3":"PER","isoN3":"604","translations":{"de":"Peru","es":"Perú","fr":"Pérou","ja":"ペルー","it":"Perù","br":"Peru","pt":"Peru","nl":"Peru","hr":"Peru","fa":"پرو"}},{"region":"Asia","subregion":"South-Eastern Asia","phoneCode":"63","name":"Philippines","isoA2":"PH","isoA3":"PHL","isoN3":"608","translations":{"de":"Philippinen","es":"Filipinas","fr":"Philippines","ja":"フィリピン","it":"Filippine","br":"Filipinas","pt":"Filipinas","nl":"Filipijnen","hr":"Filipini","fa":"جزایر الندفیلیپین"}},{"region":"Oceania","subregion":"Polynesia","phoneCode":"64","name":"Pitcairn","isoA2":"PN","isoA3":"PCN","isoN3":"612","translations":{"de":"Pitcairn","es":"Islas Pitcairn","fr":"Îles Pitcairn","ja":"ピトケアン","it":"Isole Pitcairn","br":"Ilhas Pitcairn","pt":"Ilhas Picárnia","nl":"Pitcairneilanden","hr":"Pitcairnovo otočje","fa":"پیتکرن"}},{"region":"Europe","subregion":"Eastern Europe","phoneCode":"48","name":"Poland","isoA2":"PL","isoA3":"POL","isoN3":"616","translations":{"de":"Polen","es":"Polonia","fr":"Pologne","ja":"ポーランド","it":"Polonia","br":"Polônia","pt":"Polónia","nl":"Polen","hr":"Poljska","fa":"لهستان"}},{"region":"Europe","subregion":"Southern Europe","phoneCode":"351","name":"Portugal","isoA2":"PT","isoA3":"PRT","isoN3":"620","translations":{"de":"Portugal","es":"Portugal","fr":"Portugal","ja":"ポルトガル","it":"Portogallo","br":"Portugal","pt":"Portugal","nl":"Portugal","hr":"Portugal","fa":"پرتغال"}},{"region":"Americas","subregion":"Caribbean","phoneCode":"1787","name":"Puerto Rico","isoA2":"PR","isoA3":"PRI","isoN3":"630","translations":{"de":"Puerto Rico","es":"Puerto Rico","fr":"Porto Rico","ja":"プエルトリコ","it":"Porto Rico","br":"Porto Rico","pt":"Porto Rico","nl":"Puerto Rico","hr":"Portoriko","fa":"پورتو ریکو"}},{"region":"Asia","subregion":"Western Asia","phoneCode":"974","name":"Qatar","isoA2":"QA","isoA3":"QAT","isoN3":"634","translations":{"de":"Katar","es":"Catar","fr":"Qatar","ja":"カタール","it":"Qatar","br":"Catar","pt":"Catar","nl":"Qatar","hr":"Katar","fa":"قطر"}},{"region":"Europe","subregion":"Eastern Europe","phoneCode":"40","name":"Romania","isoA2":"RO","isoA3":"ROU","isoN3":"642","translations":{"de":"Rumänien","es":"Rumania","fr":"Roumanie","ja":"ルーマニア","it":"Romania","br":"Romênia","pt":"Roménia","nl":"Roemenië","hr":"Rumunjska","fa":"رومانی"}},{"region":"Europe","subregion":"Eastern Europe","phoneCode":"7","name":"Russian Federation","isoA2":"RU","isoA3":"RUS","isoN3":"643","translations":{"de":"Russland","es":"Rusia","fr":"Russie","ja":"ロシア連邦","it":"Russia","br":"Rússia","pt":"Rússia","nl":"Rusland","hr":"Rusija","fa":"روسیه"}},{"region":"Africa","subregion":"Eastern Africa","phoneCode":"250","name":"Rwanda","isoA2":"RW","isoA3":"RWA","isoN3":"646","translations":{"de":"Ruanda","es":"Ruanda","fr":"Rwanda","ja":"ルワンダ","it":"Ruanda","br":"Ruanda","pt":"Ruanda","nl":"Rwanda","hr":"Ruanda","fa":"رواندا"}},{"region":"Africa","subregion":"Eastern Africa","phoneCode":"262","name":"Réunion","isoA2":"RE","isoA3":"REU","isoN3":"638","translations":{"de":"Réunion","es":"Reunión","fr":"Réunion","ja":"レユニオン","it":"Riunione","br":"Reunião","pt":"Reunião","nl":"Réunion","hr":"Réunion","fa":"رئونیون"}},{"region":"Oceania","subregion":"Polynesia","phoneCode":"685","name":"Samoa","isoA2":"WS","isoA3":"WSM","isoN3":"882","translations":{"de":"Samoa","es":"Samoa","fr":"Samoa","ja":"サモア","it":"Samoa","br":"Samoa","pt":"Samoa","nl":"Samoa","hr":"Samoa","fa":"ساموآ"}},{"region":"Europe","subregion":"Southern Europe","phoneCode":"378","name":"San Marino","isoA2":"SM","isoA3":"SMR","isoN3":"674","translations":{"de":"San Marino","es":"San Marino","fr":"Saint-Marin","ja":"サンマリノ","it":"San Marino","br":"San Marino","pt":"São Marinho","nl":"San Marino","hr":"San Marino","fa":"سان مارینو"}},{"region":"Africa","subregion":"Middle Africa","phoneCode":"239","name":"Sao Tome and Principe","isoA2":"ST","isoA3":"STP","isoN3":"678","translations":{"de":"São Tomé und Príncipe","es":"Santo Tomé y Príncipe","fr":"Sao Tomé-et-Principe","ja":"サントメ・プリンシペ","it":"São Tomé e Príncipe","br":"São Tomé e Príncipe","pt":"São Tomé e Príncipe","nl":"Sao Tomé en Principe","hr":"Sveti Toma i Princip","fa":"کواترو دو فرویرو"}},{"region":"Asia","subregion":"Western Asia","phoneCode":"966","name":"Saudi Arabia","isoA2":"SA","isoA3":"SAU","isoN3":"682","translations":{"de":"Saudi-Arabien","es":"Arabia Saudí","fr":"Arabie Saoudite","ja":"サウジアラビア","it":"Arabia Saudita","br":"Arábia Saudita","pt":"Arábia Saudita","nl":"Saoedi-Arabië","hr":"Saudijska Arabija","fa":"عربستان سعودی"}},{"region":"Africa","subregion":"Western Africa","phoneCode":"221","name":"Senegal","isoA2":"SN","isoA3":"SEN","isoN3":"686","translations":{"de":"Senegal","es":"Senegal","fr":"Sénégal","ja":"セネガル","it":"Senegal","br":"Senegal","pt":"Senegal","nl":"Senegal","hr":"Senegal","fa":"سنگال"}},{"region":"Europe","subregion":"Southern Europe","phoneCode":"381","name":"Serbia","isoA2":"RS","isoA3":"SRB","isoN3":"688","translations":{"de":"Serbien","es":"Serbia","fr":"Serbie","ja":"セルビア","it":"Serbia","br":"Sérvia","pt":"Sérvia","nl":"Servië","hr":"Srbija","fa":"صربستان"}},{"region":"Africa","subregion":"Eastern Africa","phoneCode":"248","name":"Seychelles","isoA2":"SC","isoA3":"SYC","isoN3":"690","translations":{"de":"Seychellen","es":"Seychelles","fr":"Seychelles","ja":"セーシェル","it":"Seychelles","br":"Seicheles","pt":"Seicheles","nl":"Seychellen","hr":"Sejšeli","fa":"سیشل"}},{"region":"Africa","subregion":"Western Africa","phoneCode":"232","name":"Sierra Leone","isoA2":"SL","isoA3":"SLE","isoN3":"694","translations":{"de":"Sierra Leone","es":"Sierra Leone","fr":"Sierra Leone","ja":"シエラレオネ","it":"Sierra Leone","br":"Serra Leoa","pt":"Serra Leoa","nl":"Sierra Leone","hr":"Sijera Leone","fa":"سیرالئون"}},{"region":"Asia","subregion":"South-Eastern Asia","phoneCode":"65","name":"Singapore","isoA2":"SG","isoA3":"SGP","isoN3":"702","translations":{"de":"Singapur","es":"Singapur","fr":"Singapour","ja":"シンガポール","it":"Singapore","br":"Singapura","pt":"Singapura","nl":"Singapore","hr":"Singapur","fa":"سنگاپور"}},{"region":"Americas","subregion":"Caribbean","phoneCode":"1721","name":"Sint Maarten","isoA2":"SX","isoA3":"SXM","isoN3":"534","translations":{"de":"Sint Maarten (niederl. Teil)","es":null,"fr":"Saint Martin (partie néerlandaise)","ja":null,"it":"Saint Martin (parte olandese)","br":"Sint Maarten","pt":"São Martinho","nl":"Sint Maarten","hr":null,"fa":"سینت مارتن"}},{"region":"Europe","subregion":"Eastern Europe","phoneCode":"421","name":"Slovakia","isoA2":"SK","isoA3":"SVK","isoN3":"703","translations":{"de":"Slowakei","es":"República Eslovaca","fr":"Slovaquie","ja":"スロバキア","it":"Slovacchia","br":"Eslováquia","pt":"Eslováquia","nl":"Slowakije","hr":"Slovačka","fa":"اسلواکی"}},{"region":"Europe","subregion":"Southern Europe","phoneCode":"386","name":"Slovenia","isoA2":"SI","isoA3":"SVN","isoN3":"705","translations":{"de":"Slowenien","es":"Eslovenia","fr":"Slovénie","ja":"スロベニア","it":"Slovenia","br":"Eslovênia","pt":"Eslovénia","nl":"Slovenië","hr":"Slovenija","fa":"اسلوونی"}},{"region":"Oceania","subregion":"Melanesia","phoneCode":"677","name":"Solomon Islands","isoA2":"SB","isoA3":"SLB","isoN3":"090","translations":{"de":"Salomonen","es":"Islas Salomón","fr":"Îles Salomon","ja":"ソロモン諸島","it":"Isole Salomone","br":"Ilhas Salomão","pt":"Ilhas Salomão","nl":"Salomonseilanden","hr":"Solomonski Otoci","fa":"جزایر سلیمان"}},{"region":"Africa","subregion":"Eastern Africa","phoneCode":"252","name":"Somalia","isoA2":"SO","isoA3":"SOM","isoN3":"706","translations":{"de":"Somalia","es":"Somalia","fr":"Somalie","ja":"ソマリア","it":"Somalia","br":"Somália","pt":"Somália","nl":"Somalië","hr":"Somalija","fa":"سومالی"}},{"region":"Africa","subregion":"Southern Africa","phoneCode":"27","name":"South Africa","isoA2":"ZA","isoA3":"ZAF","isoN3":"710","translations":{"de":"Republik Südafrika","es":"República de Sudáfrica","fr":"Afrique du Sud","ja":"南アフリカ","it":"Sud Africa","br":"República Sul-Africana","pt":"República Sul-Africana","nl":"Zuid-Afrika","hr":"Južnoafrička Republika","fa":"آفریقای جنوبی"}},{"region":"Americas","subregion":"South America","phoneCode":"500","name":"South Georgia and South Sandwich Islands","isoA2":"GS","isoA3":"SGS","isoN3":"239","translations":{"de":"Südgeorgien und die Südlichen Sandwichinseln","es":"Islas Georgias del Sur y Sandwich del Sur","fr":"Géorgie du Sud-et-les Îles Sandwich du Sud","ja":"サウスジョージア・サウスサンドウィッチ諸島","it":"Georgia del Sud e Isole Sandwich Meridionali","br":"Ilhas Geórgias do Sul e Sandwich do Sul","pt":"Ilhas Geórgia do Sul e Sanduíche do Sul","nl":"Zuid-Georgia en Zuidelijke Sandwicheilanden","hr":"Južna Georgija i otočje Južni Sandwich","fa":"جزایر جورجیای جنوبی و ساندویچ جنوبی"}},{"region":"Asia","subregion":"Eastern Asia","phoneCode":"82","name":"South Korea","isoA2":"KR","isoA3":"KOR","isoN3":"410","translations":{"de":"Südkorea","es":"Corea del Sur","fr":"Corée du Sud","ja":"大韓民国","it":"Corea del Sud","br":"Coreia do Sul","pt":"Coreia do Sul","nl":"Zuid-Korea","hr":"Južna Koreja","fa":"کره شمالی"}},{"region":"Africa","subregion":"Middle Africa","phoneCode":"211","name":"South Sudan","isoA2":"SS","isoA3":"SSD","isoN3":"728","translations":{"de":"Südsudan","es":"Sudán del Sur","fr":"Soudan du Sud","ja":"南スーダン","it":"Sudan del sud","br":"Sudão do Sul","pt":"Sudão do Sul","nl":"Zuid-Soedan","hr":"Južni Sudan","fa":"سودان جنوبی"}},{"region":"Europe","subregion":"Southern Europe","phoneCode":"34","name":"Spain","isoA2":"ES","isoA3":"ESP","isoN3":"724","translations":{"de":"Spanien","es":"España","fr":"Espagne","ja":"スペイン","it":"Spagna","br":"Espanha","pt":"Espanha","nl":"Spanje","hr":"Španjolska","fa":"اسپانیا"}},{"region":"Asia","subregion":"Southern Asia","phoneCode":"94","name":"Sri Lanka","isoA2":"LK","isoA3":"LKA","isoN3":"144","translations":{"de":"Sri Lanka","es":"Sri Lanka","fr":"Sri Lanka","ja":"スリランカ","it":"Sri Lanka","br":"Sri Lanka","pt":"Sri Lanka","nl":"Sri Lanka","hr":"Šri Lanka","fa":"سری‌لانکا"}},{"region":"Americas","subregion":"Caribbean","phoneCode":"590","name":"St. Barthélemy","isoA2":"BL","isoA3":"BLM","isoN3":"652","translations":{"de":"Saint-Barthélemy","es":"San Bartolomé","fr":"Saint-Barthélemy","ja":"サン・バルテルミー","it":"Antille Francesi","br":"São Bartolomeu","pt":"São Bartolomeu","nl":"Saint Barthélemy","hr":"Saint Barthélemy","fa":"سن-بارتلمی"}},{"region":"Africa","subregion":"Western Africa","phoneCode":"290","name":"St. Helena, Ascension and Tristan da Cunha","isoA2":"SH","isoA3":"SHN","isoN3":"654","translations":{"de":"Sankt Helena","es":"Santa Helena","fr":"Sainte-Hélène","ja":"セントヘレナ・アセンションおよびトリスタンダクーニャ","it":"Sant'Elena","br":"Santa Helena","pt":"Santa Helena","nl":"Sint-Helena","hr":"Sveta Helena","fa":"سنت هلنا، اسنشن و تریستان دا کونا"}},{"region":"Americas","subregion":"Caribbean","phoneCode":"1869","name":"St. Kitts and Nevis","isoA2":"KN","isoA3":"KNA","isoN3":"659","translations":{"de":"St. Kitts und Nevis","es":"San Cristóbal y Nieves","fr":"Saint-Christophe-et-Niévès","ja":"セントクリストファー・ネイビス","it":"Saint Kitts e Nevis","br":"São Cristóvão e Neves","pt":"São Cristóvão e Neves","nl":"Saint Kitts en Nevis","hr":"Sveti Kristof i Nevis","fa":"سنت کیتس و نویس"}},{"region":"Americas","subregion":"Caribbean","phoneCode":"1758","name":"St. Lucia","isoA2":"LC","isoA3":"LCA","isoN3":"662","translations":{"de":"Saint Lucia","es":"Santa Lucía","fr":"Saint-Lucie","ja":"セントルシア","it":"Santa Lucia","br":"Santa Lúcia","pt":"Santa Lúcia","nl":"Saint Lucia","hr":"Sveta Lucija","fa":"سنت لوسیا"}},{"region":"Americas","subregion":"Caribbean","phoneCode":"590","name":"St. Martin","isoA2":"MF","isoA3":"MAF","isoN3":"663","translations":{"de":"Saint Martin","es":"Saint Martin","fr":"Saint-Martin","ja":"サン・マルタン（フランス領）","it":"Saint Martin","br":"Saint Martin","pt":"Ilha São Martinho","nl":"Saint-Martin","hr":"Sveti Martin","fa":"سینت مارتن"}},{"region":"Americas","subregion":"Northern America","phoneCode":"508","name":"St. Pierre and Miquelon","isoA2":"PM","isoA3":"SPM","isoN3":"666","translations":{"de":"Saint-Pierre und Miquelon","es":"San Pedro y Miquelón","fr":"Saint-Pierre-et-Miquelon","ja":"サンピエール島・ミクロン島","it":"Saint-Pierre e Miquelon","br":"Saint-Pierre e Miquelon","pt":"São Pedro e Miquelon","nl":"Saint Pierre en Miquelon","hr":"Sveti Petar i Mikelon","fa":"سن پیر و میکلن"}},{"region":"Americas","subregion":"Caribbean","phoneCode":"1784","name":"St. Vincent and the Grenadines","isoA2":"VC","isoA3":"VCT","isoN3":"670","translations":{"de":"Saint Vincent und die Grenadinen","es":"San Vicente y Granadinas","fr":"Saint-Vincent-et-les-Grenadines","ja":"セントビンセントおよびグレナディーン諸島","it":"Saint Vincent e Grenadine","br":"São Vicente e Granadinas","pt":"São Vicente e Granadinas","nl":"Saint Vincent en de Grenadines","hr":"Sveti Vincent i Grenadini","fa":"سنت وینسنت و گرنادین‌ها"}},{"region":"Africa","subregion":"Northern Africa","phoneCode":"249","name":"Sudan","isoA2":"SD","isoA3":"SDN","isoN3":"729","translations":{"de":"Sudan","es":"Sudán","fr":"Soudan","ja":"スーダン","it":"Sudan","br":"Sudão","pt":"Sudão","nl":"Soedan","hr":"Sudan","fa":"سودان"}},{"region":"Americas","subregion":"South America","phoneCode":"597","name":"Suriname","isoA2":"SR","isoA3":"SUR","isoN3":"740","translations":{"de":"Suriname","es":"Surinam","fr":"Surinam","ja":"スリナム","it":"Suriname","br":"Suriname","pt":"Suriname","nl":"Suriname","hr":"Surinam","fa":"سورینام"}},{"region":"Europe","subregion":"Northern Europe","phoneCode":"4779","name":"Svalbard and Jan Mayen","isoA2":"SJ","isoA3":"SJM","isoN3":"744","translations":{"de":"Svalbard und Jan Mayen","es":"Islas Svalbard y Jan Mayen","fr":"Svalbard et Jan Mayen","ja":"スヴァールバル諸島およびヤンマイエン島","it":"Svalbard e Jan Mayen","br":"Svalbard","pt":"Svalbard","nl":"Svalbard en Jan Mayen","hr":"Svalbard i Jan Mayen","fa":"سوالبارد و یان ماین"}},{"region":"Europe","subregion":"Northern Europe","phoneCode":"46","name":"Sweden","isoA2":"SE","isoA3":"SWE","isoN3":"752","translations":{"de":"Schweden","es":"Suecia","fr":"Suède","ja":"スウェーデン","it":"Svezia","br":"Suécia","pt":"Suécia","nl":"Zweden","hr":"Švedska","fa":"سوئد"}},{"region":"Europe","subregion":"Western Europe","phoneCode":"41","name":"Switzerland","isoA2":"CH","isoA3":"CHE","isoN3":"756","translations":{"de":"Schweiz","es":"Suiza","fr":"Suisse","ja":"スイス","it":"Svizzera","br":"Suíça","pt":"Suíça","nl":"Zwitserland","hr":"Švicarska","fa":"سوئیس"}},{"region":"Asia","subregion":"Western Asia","phoneCode":"963","name":"Syria","isoA2":"SY","isoA3":"SYR","isoN3":"760","translations":{"de":"Syrien","es":"Siria","fr":"Syrie","ja":"シリア・アラブ共和国","it":"Siria","br":"Síria","pt":"Síria","nl":"Syrië","hr":"Sirija","fa":"سوریه"}},{"region":"Asia","subregion":"Eastern Asia","phoneCode":"886","name":"Taiwan","isoA2":"TW","isoA3":"TWN","isoN3":"158","translations":{"de":"Taiwan","es":"Taiwán","fr":"Taïwan","ja":"台湾（中華民国）","it":"Taiwan","br":"Taiwan","pt":"Taiwan","nl":"Taiwan","hr":"Tajvan","fa":"تایوان"}},{"region":"Asia","subregion":"Central Asia","phoneCode":"992","name":"Tajikistan","isoA2":"TJ","isoA3":"TJK","isoN3":"762","translations":{"de":"Tadschikistan","es":"Tayikistán","fr":"Tadjikistan","ja":"タジキスタン","it":"Tagikistan","br":"Tajiquistão","pt":"Tajiquistão","nl":"Tadzjikistan","hr":"Tađikistan","fa":"تاجیکستان"}},{"region":"Africa","subregion":"Eastern Africa","phoneCode":"255","name":"Tanzania","isoA2":"TZ","isoA3":"TZA","isoN3":"834","translations":{"de":"Tansania","es":"Tanzania","fr":"Tanzanie","ja":"タンザニア","it":"Tanzania","br":"Tanzânia","pt":"Tanzânia","nl":"Tanzania","hr":"Tanzanija","fa":"تانزانیا"}},{"region":"Asia","subregion":"South-Eastern Asia","phoneCode":"66","name":"Thailand","isoA2":"TH","isoA3":"THA","isoN3":"764","translations":{"de":"Thailand","es":"Tailandia","fr":"Thaïlande","ja":"タイ","it":"Tailandia","br":"Tailândia","pt":"Tailândia","nl":"Thailand","hr":"Tajland","fa":"تایلند"}},{"region":"Asia","subregion":"South-Eastern Asia","phoneCode":"670","name":"Timor-Leste","isoA2":"TL","isoA3":"TLS","isoN3":"626","translations":{"de":"Timor-Leste","es":"Timor Oriental","fr":"Timor oriental","ja":"東ティモール","it":"Timor Est","br":"Timor Leste","pt":"Timor Leste","nl":"Oost-Timor","hr":"Istočni Timor","fa":"تیمور شرقی"}},{"region":"Africa","subregion":"Western Africa","phoneCode":"228","name":"Togo","isoA2":"TG","isoA3":"TGO","isoN3":"768","translations":{"de":"Togo","es":"Togo","fr":"Togo","ja":"トーゴ","it":"Togo","br":"Togo","pt":"Togo","nl":"Togo","hr":"Togo","fa":"توگو"}},{"region":"Oceania","subregion":"Polynesia","phoneCode":"690","name":"Tokelau","isoA2":"TK","isoA3":"TKL","isoN3":"772","translations":{"de":"Tokelau","es":"Islas Tokelau","fr":"Tokelau","ja":"トケラウ","it":"Isole Tokelau","br":"Tokelau","pt":"Toquelau","nl":"Tokelau","hr":"Tokelau","fa":"توکلائو"}},{"region":"Oceania","subregion":"Polynesia","phoneCode":"676","name":"Tonga","isoA2":"TO","isoA3":"TON","isoN3":"776","translations":{"de":"Tonga","es":"Tonga","fr":"Tonga","ja":"トンガ","it":"Tonga","br":"Tonga","pt":"Tonga","nl":"Tonga","hr":"Tonga","fa":"تونگا"}},{"region":"Americas","subregion":"Caribbean","phoneCode":"1868","name":"Trinidad and Tobago","isoA2":"TT","isoA3":"TTO","isoN3":"780","translations":{"de":"Trinidad und Tobago","es":"Trinidad y Tobago","fr":"Trinité et Tobago","ja":"トリニダード・トバゴ","it":"Trinidad e Tobago","br":"Trinidad e Tobago","pt":"Trindade e Tobago","nl":"Trinidad en Tobago","hr":"Trinidad i Tobago","fa":"ترینیداد و توباگو"}},{"region":"Africa","subregion":"Northern Africa","phoneCode":"216","name":"Tunisia","isoA2":"TN","isoA3":"TUN","isoN3":"788","translations":{"de":"Tunesien","es":"Túnez","fr":"Tunisie","ja":"チュニジア","it":"Tunisia","br":"Tunísia","pt":"Tunísia","nl":"Tunesië","hr":"Tunis","fa":"تونس"}},{"region":"Asia","subregion":"Western Asia","phoneCode":"90","name":"Turkey","isoA2":"TR","isoA3":"TUR","isoN3":"792","translations":{"de":"Türkei","es":"Turquía","fr":"Turquie","ja":"トルコ","it":"Turchia","br":"Turquia","pt":"Turquia","nl":"Turkije","hr":"Turska","fa":"ترکیه"}},{"region":"Asia","subregion":"Central Asia","phoneCode":"993","name":"Turkmenistan","isoA2":"TM","isoA3":"TKM","isoN3":"795","translations":{"de":"Turkmenistan","es":"Turkmenistán","fr":"Turkménistan","ja":"トルクメニスタン","it":"Turkmenistan","br":"Turcomenistão","pt":"Turquemenistão","nl":"Turkmenistan","hr":"Turkmenistan","fa":"ترکمنستان"}},{"region":"Americas","subregion":"Caribbean","phoneCode":"1649","name":"Turks and Caicos Islands","isoA2":"TC","isoA3":"TCA","isoN3":"796","translations":{"de":"Turks- und Caicosinseln","es":"Islas Turks y Caicos","fr":"Îles Turques-et-Caïques","ja":"タークス・カイコス諸島","it":"Isole Turks e Caicos","br":"Ilhas Turcas e Caicos","pt":"Ilhas Turcas e Caicos","nl":"Turks- en Caicoseilanden","hr":"Otoci Turks i Caicos","fa":"جزایر تورکس و کایکوس"}},{"region":"Oceania","subregion":"Polynesia","phoneCode":"688","name":"Tuvalu","isoA2":"TV","isoA3":"TUV","isoN3":"798","translations":{"de":"Tuvalu","es":"Tuvalu","fr":"Tuvalu","ja":"ツバル","it":"Tuvalu","br":"Tuvalu","pt":"Tuvalu","nl":"Tuvalu","hr":"Tuvalu","fa":"تووالو"}},{"region":"Americas","subregion":"Northern America","name":"U.S. Outlying Islands","isoA2":"UM","isoA3":"UMI","isoN3":"581","translations":{"de":"Kleinere Inselbesitzungen der Vereinigten Staaten","es":"Islas Ultramarinas Menores de Estados Unidos","fr":"Îles mineures éloignées des États-Unis","ja":"合衆国領有小離島","it":"Isole minori esterne degli Stati Uniti d'America","br":"Ilhas Menores Distantes dos Estados Unidos","pt":"Ilhas Menores Distantes dos Estados Unidos","nl":"Kleine afgelegen eilanden van de Verenigde Staten","hr":"Mali udaljeni otoci SAD-a","fa":"جزایر کوچک حاشیه‌ای ایالات متحده آمریکا"}},{"region":"Americas","subregion":"Caribbean","phoneCode":"1 340","name":"U.S. Virgin Islands","isoA2":"VI","isoA3":"VIR","isoN3":"850","translations":{"de":"Amerikanische Jungferninseln","es":"Islas Vírgenes de los Estados Unidos","fr":"Îles Vierges des États-Unis","ja":"アメリカ領ヴァージン諸島","it":"Isole Vergini americane","br":"Ilhas Virgens Americanas","pt":"Ilhas Virgens Americanas","nl":"Verenigde Staten Maagdeneilanden","hr":null,"fa":"جزایر ویرجین آمریکا"}},{"region":"Africa","subregion":"Eastern Africa","phoneCode":"256","name":"Uganda","isoA2":"UG","isoA3":"UGA","isoN3":"800","translations":{"de":"Uganda","es":"Uganda","fr":"Uganda","ja":"ウガンダ","it":"Uganda","br":"Uganda","pt":"Uganda","nl":"Oeganda","hr":"Uganda","fa":"اوگاندا"}},{"region":"Europe","subregion":"Eastern Europe","phoneCode":"380","name":"Ukraine","isoA2":"UA","isoA3":"UKR","isoN3":"804","translations":{"de":"Ukraine","es":"Ucrania","fr":"Ukraine","ja":"ウクライナ","it":"Ucraina","br":"Ucrânia","pt":"Ucrânia","nl":"Oekraïne","hr":"Ukrajina","fa":"وکراین"}},{"region":"Asia","subregion":"Western Asia","phoneCode":"971","name":"United Arab Emirates","isoA2":"AE","isoA3":"ARE","isoN3":"784","translations":{"de":"Vereinigte Arabische Emirate","es":"Emiratos Árabes Unidos","fr":"Émirats arabes unis","ja":"アラブ首長国連邦","it":"Emirati Arabi Uniti","br":"Emirados árabes Unidos","pt":"Emirados árabes Unidos","nl":"Verenigde Arabische Emiraten","hr":"Ujedinjeni Arapski Emirati","fa":"امارات متحده عربی"}},{"region":"Europe","subregion":"Northern Europe","phoneCode":"44","name":"United Kingdom","isoA2":"GB","isoA3":"GBR","isoN3":"826","translations":{"de":"Vereinigtes Königreich","es":"Reino Unido","fr":"Royaume-Uni","ja":"イギリス","it":"Regno Unito","br":"Reino Unido","pt":"Reino Unido","nl":"Verenigd Koninkrijk","hr":"Ujedinjeno Kraljevstvo","fa":"بریتانیای کبیر و ایرلند شمالی"}},{"region":"Americas","subregion":"Northern America","phoneCode":"1","name":"United States of America","isoA2":"US","isoA3":"USA","isoN3":"840","translations":{"de":"Vereinigte Staaten von Amerika","es":"Estados Unidos","fr":"États-Unis","ja":"アメリカ合衆国","it":"Stati Uniti D'America","br":"Estados Unidos","pt":"Estados Unidos","nl":"Verenigde Staten","hr":"Sjedinjene Američke Države","fa":"ایالات متحده آمریکا"}},{"region":"Americas","subregion":"South America","phoneCode":"598","name":"Uruguay","isoA2":"UY","isoA3":"URY","isoN3":"858","translations":{"de":"Uruguay","es":"Uruguay","fr":"Uruguay","ja":"ウルグアイ","it":"Uruguay","br":"Uruguai","pt":"Uruguai","nl":"Uruguay","hr":"Urugvaj","fa":"اروگوئه"}},{"region":"Asia","subregion":"Central Asia","phoneCode":"998","name":"Uzbekistan","isoA2":"UZ","isoA3":"UZB","isoN3":"860","translations":{"de":"Usbekistan","es":"Uzbekistán","fr":"Ouzbékistan","ja":"ウズベキスタン","it":"Uzbekistan","br":"Uzbequistão","pt":"Usbequistão","nl":"Oezbekistan","hr":"Uzbekistan","fa":"ازبکستان"}},{"region":"Oceania","subregion":"Melanesia","phoneCode":"678","name":"Vanuatu","isoA2":"VU","isoA3":"VUT","isoN3":"548","translations":{"de":"Vanuatu","es":"Vanuatu","fr":"Vanuatu","ja":"バヌアツ","it":"Vanuatu","br":"Vanuatu","pt":"Vanuatu","nl":"Vanuatu","hr":"Vanuatu","fa":"وانواتو"}},{"region":"Europe","subregion":"Southern Europe","phoneCode":"379","name":"Vatican","isoA2":"VA","isoA3":"VAT","isoN3":"336","translations":{"de":"Heiliger Stuhl","es":"Santa Sede","fr":"voir Saint","ja":"聖座","it":"Santa Sede","br":"Vaticano","pt":"Vaticano","nl":"Heilige Stoel","hr":"Sveta Stolica","fa":"سریر مقدس"}},{"region":"Americas","subregion":"South America","phoneCode":"58","name":"Venezuela","isoA2":"VE","isoA3":"VEN","isoN3":"862","translations":{"de":"Venezuela","es":"Venezuela","fr":"Venezuela","ja":"ベネズエラ・ボリバル共和国","it":"Venezuela","br":"Venezuela","pt":"Venezuela","nl":"Venezuela","hr":"Venezuela","fa":"ونزوئلا"}},{"region":"Asia","subregion":"South-Eastern Asia","phoneCode":"84","name":"Vietnam","isoA2":"VN","isoA3":"VNM","isoN3":"704","translations":{"de":"Vietnam","es":"Vietnam","fr":"Viêt Nam","ja":"ベトナム","it":"Vietnam","br":"Vietnã","pt":"Vietname","nl":"Vietnam","hr":"Vijetnam","fa":"ویتنام"}},{"region":"Oceania","subregion":"Polynesia","phoneCode":"681","name":"Wallis and Futuna","isoA2":"WF","isoA3":"WLF","isoN3":"876","translations":{"de":"Wallis und Futuna","es":"Wallis y Futuna","fr":"Wallis-et-Futuna","ja":"ウォリス・フツナ","it":"Wallis e Futuna","br":"Wallis e Futuna","pt":"Wallis e Futuna","nl":"Wallis en Futuna","hr":"Wallis i Fortuna","fa":"والیس و فوتونا"}},{"region":"Africa","subregion":"Northern Africa","phoneCode":"212","name":"Western Sahara","isoA2":"EH","isoA3":"ESH","isoN3":"732","translations":{"de":"Westsahara","es":"Sahara Occidental","fr":"Sahara Occidental","ja":"西サハラ","it":"Sahara Occidentale","br":"Saara Ocidental","pt":"Saara Ocidental","nl":"Westelijke Sahara","hr":"Zapadna Sahara","fa":"جمهوری دموکراتیک عربی صحرا"}},{"region":"Asia","subregion":"Western Asia","phoneCode":"967","name":"Yemen","isoA2":"YE","isoA3":"YEM","isoN3":"887","translations":{"de":"Jemen","es":"Yemen","fr":"Yémen","ja":"イエメン","it":"Yemen","br":"Iêmen","pt":"Iémen","nl":"Jemen","hr":"Jemen","fa":"یمن"}},{"region":"Africa","subregion":"Eastern Africa","phoneCode":"260","name":"Zambia","isoA2":"ZM","isoA3":"ZMB","isoN3":"894","translations":{"de":"Sambia","es":"Zambia","fr":"Zambie","ja":"ザンビア","it":"Zambia","br":"Zâmbia","pt":"Zâmbia","nl":"Zambia","hr":"Zambija","fa":"زامبیا"}},{"region":"Africa","subregion":"Eastern Africa","phoneCode":"263","name":"Zimbabwe","isoA2":"ZW","isoA3":"ZWE","isoN3":"716","translations":{"de":"Simbabwe","es":"Zimbabue","fr":"Zimbabwe","ja":"ジンバブエ","it":"Zimbabwe","br":"Zimbabwe","pt":"Zimbabué","nl":"Zimbabwe","hr":"Zimbabve","fa":"زیمباوه"}},{"region":"Europe","subregion":"Northern Europe","phoneCode":"358","name":"Åland Islands","isoA2":"AX","isoA3":"ALA","isoN3":"248","translations":{"de":"Åland","es":"Alandia","fr":"Åland","ja":"オーランド諸島","it":"Isole Aland","br":"Ilhas de Aland","pt":"Ilhas de Aland","nl":"Ålandeilanden","hr":"Ålandski otoci","fa":"جزایر الند"}}]